,Unnamed: 0.2,index,Unnamed: 0.1,Unnamed: 0,names,city_region,public1,address,full_address,Latitude,Longitude
0,0,2,2,2,ГККП «Строительно-технический колледж» акимата города Астана,Астана,True,"ул. Аль-Фараби, 53/350-16-06","Астана ул. Аль-Фараби, 53/350-16-06",51.158933835644,71.525587524066
1,1,3,3,3,ГККП «Колледж общественного питания и сервиса» акимата города Астана,Астана,True,"ул. Б.Майлин, 1250-16-47","Астана ул. Б.Майлин, 1250-16-47",51.1776,71.433
2,2,4,4,4,ГККП «Технологический колледж» акимата города Астана,Астана,True,"ул. С.Сейфуллина, 5954-42-14","Астана ул. С.Сейфуллина, 5954-42-14",51.169827152152,71.388127767313
3,3,5,5,5,ГККП «Технический колледж» акимата города Астана,Астана,True,"Улица 187,здание 19","Астана Улица 187,здание 19",51.174629132284,71.389438067762
4,4,6,6,6,КГУ «Профессионально-технический колледж» акимата города Астана,Астана,True,"Кургальджинское шоссе, 2257-05-46","Астана Кургальджинское шоссе, 2257-05-46",51.148670358216,71.386617065206
5,5,7,7,7,ГКП на ПХВ «Колледж сериса и туризма» акимата города Астана,Астана,True,"ул. Қарасай батыр, 1927-22-19","Астана ул. Қарасай батыр, 1927-22-19",51.197337997703,71.395148975493
6,6,8,8,8,ГКП на ПХВ «Высший колледж «ASTANA POLYTECHNIC» акимата города Астана,Астана,True,"ул. Бейбітшілік, 3950-14-81","Астана ул. Бейбітшілік, 3950-14-81",51.16960580494,71.420475000598
7,7,9,9,9,ГКП на ПХВ «Высший колледж транспорта и коммуникаций» акимата города Астана,Астана,True,"ул. Конституция, 1050-18-40","Астана ул. Конституция, 1050-18-40",51.194697180188,71.397447206987
8,8,10,10,10,ГКП на ПХВ «Высший медицинский колледж» акимата города Астана,Астана,True,"Ш.Құдайбердіұлы, 1633-15-67","Астана Ш.Құдайбердіұлы, 1633-15-67",51.153533237225,71.507193019346
9,9,12,12,12,Педагогический колледж ТОО «Междунородный университет «Астана»,Астана,False,"ул. І. Жансүгірұлы, 450-16-19","Астана ул. І. Жансүгірұлы, 450-16-19",51.1581969684,71.481998994418
10,10,13,13,13,Учреждение «Высший Торгово-экономический колледж Казпотребсоюза»,Астана,False,"ул. Кенесары, 60, 50-18-37","Астана ул. Кенесары, 60, 50-18-37",51.166718989223,71.449618773279
11,11,14,14,14,ТОО «Колледж Управления»,Астана,False,"пр. Жеңіс, 68  ул. Орлыколь,14/331-10-14","Астана пр. Жеңіс, 68  ул. Орлыколь,14/331-10-14",51.184520307549,71.433218741526
12,12,15,15,15,Колледж иностранных языков «Лингва»,Астана,False,"ул. Т.Рыскулбеков, 7/2, 25-67-11","Астана ул. Т.Рыскулбеков, 7/2, 25-67-11",51.154428017863,71.494737971339
13,13,16,16,16,ТОО «Медико-технический колледж»,Астана,False,"ул. І.Есенберлина 16/2, 38-23-57","Астана ул. І.Есенберлина 16/2, 38-23-57",51.190486536241,71.409313759299
14,14,17,17,17,Колледж «Даналық»,Астана,False,"Коктал 1, ул. Ардагерлер, 27, 48-20-98","Астана Коктал 1, ул. Ардагерлер, 27, 48-20-98",51.183563513301,71.343311179124
15,15,18,18,18,ТОО «Гуманитарно-юридический колледж КазГЮУ»,Астана,False,"ул. І.Есенберлина, 27, 39-25-27","Астана ул. І.Есенберлина, 27, 39-25-27",51.189117015082,71.417818081567
16,16,19,19,19,Колледж «Туран»,Астана,False,"ул. А.Бараева, 9/2, 20-20-09","Астана ул. А.Бараева, 9/2, 20-20-09",51.15785769209,71.436464872899
17,17,20,20,20,Учреждение «Колледж им.Д.А. Кунаева в г.Астане»,Астана,False,"ул. Манас, 23/2,68-00-70","Астана ул. Манас, 23/2,68-00-70",51.163804014755,71.491814028235
18,18,21,21,21,ТОО «Казахстанский Швейцарско-Американский колледж туризма и гостиничного дела»,Астана,False,"ул. Конаева 29/1, 72-51-99","Астана ул. Конаева 29/1, 72-51-99",51.1776,71.433
19,19,22,22,22,ТОО «Индустриальный инженерно-экономический колледж»,Астана,False,ул. Даулеткерей 143-08-74,Астана ул. Даулеткерей 143-08-74,51.177413953351,71.368912054675
20,20,23,23,23,ТОО «Астанинский технико-экономический колледж»,Астана,False,"ул. Ы. Дүкенұлы, 31/322-62-79","Астана ул. Ы. Дүкенұлы, 31/322-62-79",51.178693805583,71.417211143234
21,21,24,24,24,Колледж АО «Казахский университет технологии и бизнеса»,Астана,False,"ул. Мухамедханова, 37А72-58-34","Астана ул. Мухамедханова, 37А72-58-34",51.187238894025,71.392855016232
22,22,25,25,25,ТОО «Акмолинский колледж АО «Казахская академиятранспорта и коммуникаций им.М.Тынышпаева»,Астана,False,"ул. Гете, 10А94-34-87","Астана ул. Гете, 10А94-34-87",51.193659012762,71.409928030991
23,23,26,26,26,Учреждение «Колледж Евразийского гуманитарного института»,Астана,False,"ул. М.Жұмабаев, 4а68-00-82","Астана ул. М.Жұмабаев, 4а68-00-82",51.1776,71.433
24,24,27,27,27,Многопрофильный колледж «Парасат»,Астана,False, ,Астана  ,51.1776,71.433
25,25,28,28,28,"ТОО «Колледж менеджмента, бизнеса и образования»",Астана,False,"пр. Жеңіс, 68а38-26-05","Астана пр. Жеңіс, 68а38-26-05",51.189407585743,71.408175794132
26,26,29,29,29,Колледж НАО ЕНУ им.Л.Н.Гумилева,Астана,False,"ул. І.Есенберлин, 2549-72-96","Астана ул. І.Есенберлин, 2549-72-96",51.189094559221,71.419128284458
27,27,30,30,30,Учреждение «Колледж городского хозяйства«Астана-Профи»,Астана,False,ул. Ақбұғы 1/194-23-29,Астана ул. Ақбұғы 1/194-23-29,51.193371010569,71.402766030004
28,28,31,31,31,Учреждение медицинский колледж «Шипагер»,Астана,False,"ул. Чехоева, 14/149-65-86,","Астана ул. Чехоева, 14/149-65-86,",51.196497879548,71.460219030948
29,29,32,32,32,Экономико-юридический колледж,Астана,False,"ул. Сембинов, 2352-15-18","Астана ул. Сембинов, 2352-15-18",51.17681932579,71.455901623339
30,30,33,33,33,ТОО «Казахстанский международный лингвистический колледж»,Астана,False,"ул. Т.Бигельдинова, 6
+7 (7172) 57‒97‒07","Астана ул. Т.Бигельдинова, 6
+7 (7172) 57‒97‒07",51.164827891584,71.411293686487
31,31,34,34,34,ТОО «Медицинский колледж «Томирис»,Астана,False,"ул. Саркан, 152-66-04","Астана ул. Саркан, 152-66-04",51.135372235976,71.494602255961
32,32,35,35,35,Колледж ТОО «Республиканская медицинская академия»,Астана,False,ул. Макат 4а57-32-33,Астана ул. Макат 4а57-32-33,51.193199769317,71.459622052494
33,33,36,36,36,Частное учреждение «Колледж медресе Астана»,Астана,False,"ул. Кобыланды батыр, 3","Астана ул. Кобыланды батыр, 3",51.154030665435,71.522025059399
34,34,37,37,37,Колледж информационных технологий при ТОО «Astana IT University»,Астана,False,"ул.Мангилик ел, 55/11 корп С1","Астана ул.Мангилик ел, 55/11 корп С1",51.093216081364,71.425580211167
35,35,38,38,38, ,Алматы,True,"Ул. Жандосова, 65","Алматы Ул. Жандосова, 65",43.211469982384,76.867430031704
36,36,39,39,39,г.Алматы Колледжи государственной формы собственности,Алматы,True,"Ул. Жамбыла, 102","Алматы Ул. Жамбыла, 102",43.246355002395,76.929241035566
37,37,40,40,40,ГККП «Алматинский государственный колледж энергетики и электронных технологий»,Алматы,True,Ул. Чайковского 7,Алматы Ул. Чайковского 7,43.269169998015,76.934947016153
38,38,41,41,41,КГКП «Алматинский колледж транспорта и коммуникаций»,Алматы,True,Ул. Шемякина 131,Алматы Ул. Шемякина 131,43.29969600928,76.965190012457
39,39,42,42,42,КГКП «Колледж индустрии туризма и гостеприимства»,Алматы,True,"Мкр. Таугуль 2, 29/3","Алматы Мкр. Таугуль 2, 29/3",43.213251506164,76.872329699588
40,40,43,43,43,ГККП «Алматинский казахский государственный гуманитарно-педагогический колледж №1»,Алматы,True,"Ул. Толе би, 287Б","Алматы Ул. Толе би, 287Б",43.227984233646,76.804970993159
41,41,44,44,44,ГККП «Алматинский государственный гуманитарно-педагогический колледж №2»,Алматы,True,"Тастак 1, мкр. 1В","Алматы Тастак 1, мкр. 1В",43.249169980757,76.862735998287
42,42,45,45,45,ГККП «Алматинский колледж автомобильной и модной индустрии»,Алматы,True,Ул. Сатпаева 86,Алматы Ул. Сатпаева 86,43.233635003322,76.882947029957
43,43,46,46,46,ГККП «Алматинский государственный политехнический колледж»,Алматы,True,Ул. дегдара 10/3,Алматы Ул. дегдара 10/3,43.395989995169,76.983789958518
44,44,47,47,47,ГККП «Алматинский государственный колледж сервиса и технологий»,Алматы,True,"Ул. Шевченко, 95","Алматы Ул. Шевченко, 95",43.173844298382,76.898181675379
45,45,48,48,48,КГКП «Алматинский колледж пассажирского транспорта и технологий»,Алматы,True,Ул. Е. Чайкина 12 А,Алматы Ул. Е. Чайкина 12 А,43.21714997907,76.968549982164
46,46,49,49,49,ГККП «Алматинский государственный бизнес колледж»,Алматы,True,"Ул. Кабдолова, 12","Алматы Ул. Кабдолова, 12",43.236889989691,76.855139982353
47,47,50,50,50,КГП на ПХВ «Высший медицинский колледж» УОЗ г.Алматы,Алматы,True,Проспект Райымбека 174,Алматы Проспект Райымбека 174,43.267961118029,76.919926058929
48,48,51,51,51,КГКП «Алматинский технологический колледж» Управления образования г.Алматы,Алматы,True,"Ул. Жандосова, 63","Алматы Ул. Жандосова, 63",43.212159980653,76.868099997224
49,49,52,52,52,КГКП «Алматинский колледж моды и дизайна»,Алматы,True,"Ул. Шевченко, 202","Алматы Ул. Шевченко, 202",43.242303986681,76.892248008816
50,50,53,53,53,КГКП «Алматинский многопрофильный колледж»,Алматы,True,"Ул. Казыбаева, 270","Алматы Ул. Казыбаева, 270",43.304539994944,76.91854002742
51,51,54,54,54,КГКП «Алматинский колледж полиграфии»,Алматы,True,"Ул. Тимирязева, 50","Алматы Ул. Тимирязева, 50",43.224959984992,76.900391027751
52,52,55,55,55,КГКП «Алматинский автомеханический колледж»,Алматы,True,Пр. Сейфуллина 467 В,Алматы Пр. Сейфуллина 467 В,43.268733007493,76.929563990296
53,53,56,56,56,"КГКП «Колледж архитектуры, дизайна и инженерии»",Алматы,True,"Ул. Заветная, 41","Алматы Ул. Заветная, 41",43.334980007883,76.961499963403
54,54,57,57,57,КГКП «Алматинский колледж технологий и флористики»,Алматы,True,Ул. Саина 32,Алматы Ул. Саина 32,43.233639990554,76.842980020141
55,55,58,58,58,КГКП «Алматинский колледж телекоммуникаций и машиностроения»,Алматы,True,"Ул. Туркебаева, 257","Алматы Ул. Туркебаева, 257",43.229959706417,76.881957881563
56,56,59,59,59,КГКП «Алматинский строительно-технический колледж»,Алматы,True,"Ул. Досмухамедова, 61","Алматы Ул. Досмухамедова, 61",43.252180006007,76.923444027511
57,57,60,60,60,КГКП «Алматинский электромеханический колледж»,Алматы,True,"Пр. Сейфуллина, 521","Алматы Пр. Сейфуллина, 521",43.257044988338,76.931889968427
58,58,61,61,61,ГККП «Специализированная школа-интернат-колледж для одаренных в спорте детей»,Алматы,True,Ул. Байзакова 125/185,Алматы Ул. Байзакова 125/185,43.256489016701,76.910616027615
59,59,63,63,63,УО «Колледж Каспийского общественного университета»,Алматы,False,"Ул. Ахметова, 44","Алматы Ул. Ахметова, 44",43.353203100937,77.005498268611
60,60,64,64,64,Учреждение Колледж Академии «Кайнар»,Алматы,False,"Ул. Байтурсынова, 126/1","Алматы Ул. Байтурсынова, 126/1",43.234448623091,76.930387974706
61,61,65,65,65,АО «Академия гражданской авиации» Авиационный колледж,Алматы,False,"Ул. Сатпаева, 16","Алматы Ул. Сатпаева, 16",43.237843012082,76.941118024728
62,62,66,66,66,НАО «Алматинский университет энергетики и связи имени Гумарбека Даукеева» Колледж АУЭС,Алматы,False,Ул. Гоголя 161,Алматы Ул. Гоголя 161,43.2590567854,76.933310511491
63,63,67,67,67,Учреждение «Университет «Туран» (колледж),Алматы,False,"Ул. Масанчи, 39","Алматы Ул. Масанчи, 39",43.252000381822,76.928921768874
64,64,68,68,68,Колледж профессионального образования в составе при НАО «Казахский Национальный Женский Педагогический Университет»,Алматы,False,Ул. Карасай батыра 75,Алматы Ул. Карасай батыра 75,43.249318005168,76.9064430133
65,65,69,69,69,НАО «Колледж Казахского национального университета имени аль-Фараби»,Алматы,False,"Ул. Толе би, 303","Алматы Ул. Толе би, 303",43.242194016111,76.841688033585
66,66,70,70,70,НУО «Казахстанско-Российский высший медицинский колледж»,Алматы,False,"Ул. Рыскулбекова, 39А","Алматы Ул. Рыскулбекова, 39А",43.20532998685,76.871284030784
67,67,71,71,71,ТОО «Колледж им. Д.А. Кунаева»,Алматы,False,"Проспект Аль-Фараби, 93А","Алматы Проспект Аль-Фараби, 93А",43.208265401109,76.912828669783
68,68,72,72,72,"ТОО""Алматинский финансово-экономический колледж""",Алматы,False,"Ул. Гагарина, 135 А","Алматы Ул. Гагарина, 135 А",43.233511998893,76.894606005817
69,69,73,73,73,ТОО «Колледж международного инженерно-технологияеского университета»,Алматы,False,"Көктем-1, мкр., 11","Алматы Көктем-1, мкр., 11",43.228619901104,76.927073223948
70,70,74,74,74,ТОО «Колледж «Әділет»,Алматы,False,"Ул. Кунаева, 43","Алматы Ул. Кунаева, 43",43.26284400805,76.948769025946
71,71,75,75,75,ТОО Медицинский центр «Эмили»,Алматы,False,"Жетысу-1, мкр. 32/3","Алматы Жетысу-1, мкр. 32/3",43.44159,77.03874
72,72,76,76,76,УО «Колледж Академия дизайна и технологии «Сымбат»,Алматы,False,"Пр. Райымбека, 165","Алматы Пр. Райымбека, 165",43.270086014303,76.935177015576
73,73,77,77,77,ТОО «Алматинский технико-экономический колледж путей сообщения»,Алматы,False,"Ул. Шевченко, 97","Алматы Ул. Шевченко, 97",43.245401016085,76.928747006193
74,74,78,78,78,ТОО «Алматинский колледж академии логистики и транспорта»,Алматы,False,"Ул. Толе би, 109 Б","Алматы Ул. Толе би, 109 Б",43.25371200836,76.923100034205
75,75,79,79,79,ТОО «Педагогический колледж ALT»,Алматы,False,"Коктем-1, мкр. 11","Алматы Коктем-1, мкр. 11",43.228619901104,76.927073223948
76,76,80,80,80,Учреждение «Евразийский технико-экономический колледж»,Алматы,False,"Ул. Байтурсынова, 89","Алматы Ул. Байтурсынова, 89",43.243797395255,76.926869059754
77,77,81,81,81,ТОО «Алматинский колледж «Престиж»,Алматы,False,"Ул. Байтурсынова, 89","Алматы Ул. Байтурсынова, 89",43.243797395255,76.926869059754
78,78,82,82,82,Учреждение «Колледж международного сервиса и менеджмента»,Алматы,False,"Ул. Досмухамедова, 15","Алматы Ул. Досмухамедова, 15",43.259115988975,76.922617990953
79,79,83,83,83,УО «Педагогический колледж иностранных языков»,Алматы,False,Проспект Абая 83,Алматы Проспект Абая 83,43.2421654516,76.931683510213
80,80,84,84,84,УО «Колледж Менеджмента Междуна-родного Туризма»,Алматы,False,"Ул. Богенбай батыра, 263","Алматы Ул. Богенбай батыра, 263",43.249976491622,76.899769364588
81,81,85,85,85,"НУО «Казахский колледж физической культуры, туризма и сервиса»",Алматы,False,"Ул. Казыбек би, 168","Алматы Ул. Казыбек би, 168",43.253510004493,76.908159459433
82,82,86,86,86,ТОО «Высший Медико-Стоматологический колледж профессора Рузуддинова»,Алматы,False,"Ул. Досмухамбетова, 15","Алматы Ул. Досмухамбетова, 15",43.259115988975,76.922617990953
83,83,87,87,87,ЧУ «Высший казахско-турецкий гуманитарно-технологический колледж»,Алматы,False,"Ул. Желтоксан, 111 а","Алматы Ул. Желтоксан, 111 а",43.255281980734,76.938805038547
84,84,88,88,88,УО «Лингвистический колледж»,Алматы,False,"Мкр. Жетысу, 16А","Алматы Мкр. Жетысу, 16А",43.2790761004,76.959837770715
85,85,89,89,89,УО «Алматинский колледж экономики и современных технологий»,Алматы,False,"Ул. Маметова, 69","Алматы Ул. Маметова, 69",43.266626006582,76.931833977314
86,86,90,90,90,Учреждение «Международный колледж бизнеса и коммуникаций»,Алматы,False,"Ул. Богенбай батыра, 149","Алматы Ул. Богенбай батыра, 149",43.252614020953,76.932129020305
87,87,91,91,91,НЧУ «Алматинский технологическо-финансовый и инновационно-технический колледж»,Алматы,False,"Ул. Жандосова, 305А","Алматы Ул. Жандосова, 305А",43.205862496508,76.85611403718
88,88,92,92,92,ТОО «Высший медицинский колледж «Интердент»,Алматы,False,"Мкр. Аксай-3, 36","Алматы Мкр. Аксай-3, 36",43.236144419404,76.828562392308
89,89,93,93,93,ТОО «Медицинский Колледж «Авимед»,Алматы,False,"Ул. Жубанова, 1а","Алматы Ул. Жубанова, 1а",43.237160012702,76.858970009191
90,90,94,94,94,ТОО «Инновационный колледж города Алматы»,Алматы,False,"Майский мкр.,","Алматы Майский мкр.,",45.03972,75.07554
91,91,95,95,95,ЮКА «Юридический колледж г.Алматы»,Алматы,False,Ул. Керуентау 2/1,Алматы Ул. Керуентау 2/1,43.1991300188,76.842069996913
92,92,96,96,96,Учреждение «Алматинский технико-экономический колледж связи»,Алматы,False,"10 мкр., 7 А","Алматы 10 мкр., 7 А",43.218229987295,76.872309975732
93,93,97,97,97,Учреждение «Экономический колледж университета Нархоз»,Алматы,False,"Ул. Садовый бульвар, 1","Алматы Ул. Садовый бульвар, 1",43.178013015046,76.921947831839
94,94,98,98,98,ТОО «Многопрофильный колледж «АдилМед»»,Алматы,False,5 мкр. 45А,Алматы 5 мкр. 45А,43.228971982947,76.861895963951
95,95,99,99,99,ЧУ «Международный казахско-китайский языковой колледж»,Алматы,False,"Пр. Абая, 10","Алматы Пр. Абая, 10",43.241900020857,76.946499960938
96,96,100,100,100,ТОО «Алматинский колледж строительства и менеджмента»,Алматы,False,Ул. Жумалиева 108,Алматы Ул. Жумалиева 108,43.251591009671,76.913682965987
97,97,101,101,101,УО Гуманитарный колледж «КазНур»,Алматы,False,"Орбита-2 мкр., 20 А","Алматы Орбита-2 мкр., 20 А",43.19644898325,76.88542002667
98,98,102,102,102,УО «Алматинский колледж менеджмента и сервиса»,Алматы,False,Ул. Сатпаева 69 «А»,Алматы Ул. Сатпаева 69 «А»,43.235226014273,76.893735964267
99,99,103,103,103,Учреждение «Алматинский медицинский колледж «ДИМЕД»,Алматы,False,"Ул. Наурызбай батыра, 9","Алматы Ул. Наурызбай батыра, 9",43.267018415687,76.934569814383
100,100,104,104,104,ТОО «Колледж «Международной Академии Бизнеса»,Алматы,False,"Ул. Торайгырова, 29","Алматы Ул. Торайгырова, 29",43.202190000192,76.871549988571
101,101,105,105,105,ТОО «Алматинский колледж связи-Школа при КАУ»,Алматы,False,"Ул. Рыскулбекова, 28","Алматы Ул. Рыскулбекова, 28",43.204999111223,76.87493401434
102,102,106,106,106,ТОО «Колледж–Школа КазГАСА»,Алматы,False,"Ул. Таласская, 1","Алматы Ул. Таласская, 1",43.317853013667,76.937499976222
103,103,107,107,107,УО «Колледж «Аяжан»,Алматы,False,"Проспект Достык, 108","Алматы Проспект Достык, 108",43.241005210784,76.957497101723
104,104,108,108,108,УО «Центральноазиатский технико-экономический колледж»,Алматы,False,"Пр. Сейфуллина, д. 404/67","Алматы Пр. Сейфуллина, д. 404/67",43.267495712856,76.93284449956
105,105,109,109,109,Учреждение «Евразийский аграрный колледж»,Алматы,False,Проспект Достык 108,Алматы Проспект Достык 108,43.241005210784,76.957497101723
106,106,110,110,110,УО «Алматинский колледж железнодорожного транспорта»,Алматы,False,"Проспект Райымбека, 415 В","Алматы Проспект Райымбека, 415 В",43.252305986012,76.855998959791
107,107,111,111,111,Учреждение «Алматинский автомобильно-дорожный колледж»,Алматы,False,"Ул. Нусупбекова, 10","Алматы Ул. Нусупбекова, 10",43.267033995719,76.954959983451
108,108,112,112,112,ТОО «Организация образования колледж «Перспектива»,Алматы,False,Проспект Абая 52 Г,Алматы Проспект Абая 52 Г,43.239761001076,76.913132023491
109,109,113,113,113,ТОО «Инновационный технический колледж г.Алматы»,Алматы,False,"Ул. Калдаякова, 54","Алматы Ул. Калдаякова, 54",43.256899981413,76.959240034669
110,110,114,114,114,ТОО «Республиканский высший медицинский колледж»,Алматы,False,"Ул. Пушкина, 12/1","Алматы Ул. Пушкина, 12/1",43.269499993543,76.95264004029
111,111,115,115,115,ЧУ «Колледж медресе Абу Ханифа»,Алматы,False,"Ул. Желтоксан, 111 а","Алматы Ул. Желтоксан, 111 а",43.255281980734,76.938805038547
112,112,116,116,116,ТОО «Алматинский Экономическо Правовой и Педагогический колледж»,Алматы,False,"Ул. кокорай, 2/2","Алматы Ул. кокорай, 2/2",43.268540014172,76.863409987122
113,113,117,117,117,ТОО «Медико-фармацевтический колледж № 1»,Алматы,False,"Микрорайон Кок-тобе 2, ул.Кыз Жибек 62","Алматы Микрорайон Кок-тобе 2, ул.Кыз Жибек 62",43.218542413872,76.972080641024
114,114,118,118,118,ТОО «Алматинский Национальный Медицинский колледж»,Алматы,False,Проспект Рыскулова 101,Алматы Проспект Рыскулова 101,43.275058913638,76.891005894584
115,115,119,119,119,ТОО «Медицинский колледж ТАЛАНТ-К»,Алматы,False,"Ул. Богенбай батыра, 176","Алматы Ул. Богенбай батыра, 176",43.2518759647,76.927918313148
116,116,120,120,120,ТОО «Алматинский технолого-экономический колледж»,Алматы,False,"Ул. С. Торайгырова, 19","Алматы Ул. С. Торайгырова, 19",43.202525988781,76.876204962319
117,117,121,121,121,Учреждение «Школа –интернат –колледж имени Сулеймана Демиреля»,Алматы,False,Ул. Абдуллина 16/1,Алматы Ул. Абдуллина 16/1,43.26202161762,76.959845878631
118,118,122,122,122,УО «Медицинский колледж имени «Мәриям»,Алматы,False,Наименование организации,Алматы Наименование организации,43.2515622,76.9089372
119,119,123,123,123,ТОО «Гуманитарно-экономический колледж города Алматы»,Алматы,False,"Абайский район, улица Гагарина, здание 121","Алматы Абайский район, улица Гагарина, здание 121",49.626807793122,72.863570863993
120,120,125,125,125,Индустиально-технический колледж,Шымкент,True,"Абайский район, улица Жаркымбекова, дом 13.","Шымкент Абайский район, улица Жаркымбекова, дом 13.",42.312032358558,69.564123258806
121,121,126,126,126,"Колледж №4
 ",Шымкент,True,"Аль-Фарабийский район, улица Туркестанская, здание 2А","Шымкент Аль-Фарабийский район, улица Туркестанская, здание 2А",42.304693395271,69.641112137057
122,122,127,127,127,"Колледж легкой промышленности и сервиса
 ",Шымкент,True,"Аль-Фарабийский район, ул. Н. Торекулова, здание 1","Шымкент Аль-Фарабийский район, ул. Н. Торекулова, здание 1",42.3333103,69.6218093
123,123,128,128,128,"Колледж №6
 ",Шымкент,True,"Каратауский район, улица Юсуф Сареми, дом 5","Шымкент Каратауский район, улица Юсуф Сареми, дом 5",42.3036571,69.7379529
124,124,129,129,129,Колледж №10,Шымкент,True,"Абайский район, улица Шамши Калдаякова, здание 30","Шымкент Абайский район, улица Шамши Калдаякова, здание 30",42.313199229921,69.568851330042
125,125,130,130,130,Колледж искусств и дизайна им.а. Кастеева,Шымкент,True,"Абайский район, улица Октябрьская, здание 30","Шымкент Абайский район, улица Октябрьская, здание 30",42.323681826649,69.571839814416
126,126,131,131,131, Музыкальный колледж,Шымкент,True,"Аль-Фарабийский район, улица Желтоксан, здание 30","Шымкент Аль-Фарабийский район, улица Желтоксан, здание 30",42.323487513849,69.59946686849
127,127,132,132,132,Политехнический колледж,Шымкент,True,"Абайский район, проспект Б. Момышулы, здание 53","Шымкент Абайский район, проспект Б. Момышулы, здание 53",49.081370569519,79.299515339345
128,128,133,133,133,Дорожно-транспортный колледж,Шымкент,True,"Аль-Фарабийский район, с. Байтурсынова, здание 23","Шымкент Аль-Фарабийский район, с. Байтурсынова, здание 23",42.3333103,69.6218093
129,129,134,134,134,Колледж новых технологий имени Манапа Утебаева,Шымкент,True,Наименование организации,Шымкент Наименование организации,42.3333103,69.6218093
130,130,136,136,136,"Государственное коммунальное казенное предприятие «Агротехнический колледж, село Коргалжын» при управлении образования Акмолинской области",Акмолинская область,True,"Коргалжынский р-н, с.Коргалжын, ул.Жангелдина 8","Акмолинская область, Коргалжынский р-н, с.Коргалжын, ул.Жангелдина 8",50.583066786911,70.030292416937
131,131,137,137,137,"Государственное коммунальное казенное предприятие «Агротехнический колледж, село Каменка, Сандыктауский район» при управлении образования Акмолинской области",Акмолинская область,True,"Индекс 021409
Акмолинская область Сандыктауский р-н, 
 с. Каменка, ул.Рабочая 42/4","Акмолинская область, Индекс 021409
Акмолинская область, Сандыктауский р-н, 
 с. Каменка, ул.Рабочая 42/4",52.5,68.75
132,132,138,138,138,"Государственное коммунальное казенное предприятие «Агротехнический колледж, село Красный Яр» при управлении образования Акмолинской области",Акмолинская область,True,"Индекс 020010  Акмолинская область с. Красный Яр,
ул. Ленина 68            ","Акмолинская область, Индекс 020010  Акмолинская область, с. Красный Яр,
ул. Ленина 68            ",52.904157681812,69.144426169407
133,133,139,139,139,"Государственное коммунальное казенное предприятие «Агротехнический колледж, поселок Аршалы» при управлении образования Акмолинской области",Акмолинская область,True,"Индекс 020200
Акмолинская область
п. Аршалы, ул. ПЛ-14","Акмолинская область, Индекс 020200
Акмолинская область,
п. Аршалы, ул. ПЛ-14",50.8370121,72.1753096
134,134,140,140,140,"Государственное коммунальное казенное предприятие «Школа-интернат-колледж, село Бозайгыр, Шортандинский район» при управлении образования Акмолинской области",Акмолинская область,True,"Индекс 021606
Акмолинская область Шортандинский р-н
с. Бозайгыр, ул.Конаева 1в","Акмолинская область, Индекс 021606
Акмолинская область, Шортандинский р-н
с. Бозайгыр, ул.Конаева 1в",51.66667,71.0
135,135,141,141,141,"Государственное коммунальное казенное предприятие «Агротехнический колледж, село Астраханка» при управлении образования Акмолинской области",Акмолинская область,True,"Индекс 020300
Акмолинская область Астраханский р-н, 
с. Астраханка,
ул. Абылай-хана, 1 ","Акмолинская область, Индекс 020300
Акмолинская область, Астраханский р-н, 
с. Астраханка,
ул. Абылай-хана, 1 ",51.510506980825,69.804503139949
136,136,142,142,142,"Государственное коммунальное казенное предприятие «Агротехнический колледж, город Есиль» при управлении образования Акмолинской области",Акмолинская область,True,"Индекс 020900
Акмолинская область   Есильский р-н, г. Есиль, ПЛ№7 1 ""А""","Акмолинская область, Индекс 020900
Акмолинская область,   Есильский р-н, г. Есиль, ПЛ№7 1 ""А""",52.0,66.5
137,137,143,143,143,"Государственное коммунальное казенное предприятие «Агротехнический колледж, город Ерейментау» при управлении образования Акмолинской области",Акмолинская область,True,"Индекс 020800
Акмолинская область
 г. Ерейментау, 
ул. Победы 16","Акмолинская область, Индекс 020800
Акмолинская область,
 г. Ерейментау, 
ул. Победы 16",52.907338194972,69.165780827946
138,138,144,144,144,"Государственное коммунальное казенное предприятие «Агротехнический колледж, село Жанаесиль, Целиноградский район» при управлении образования Акмолинской области",Акмолинская область,True,"Индекс 010023
Акмолинская область Целиноградский р-н, с. Новоишимка, ул. Центральная 1  ","Акмолинская область, Индекс 010023
Акмолинская область, Целиноградский р-н, с. Новоишимка, ул. Центральная 1  ",52.954390888547,70.262394189025
139,139,145,145,145,"Государственное коммунальное казенное предприятие «Агротехнический колледж, город Акколь» при управлении образования Акмолинской области",Акмолинская область,True,"Индекс 020100                Акмолинская область       
  г. Акколь,
ул. Луганская, 6","Акмолинская область, Индекс 020100                Акмолинская область,       
  г. Акколь,
ул. Луганская, 6",51.980651408425,70.968105593216
140,140,146,146,146,"Государственное коммунальное казенное предприятие «Агротехнический колледж, село Егиндыколь» при управлении образования Акмолинской области",Акмолинская область,True,"Егиндикольский р-н, с.Егиндыколь, ул.Гагарина 3","Акмолинская область, Егиндикольский р-н, с.Егиндыколь, ул.Гагарина 3",51.056810906649,69.480122313593
141,141,147,147,147,"Государственное коммунальное казенное предприятие «Высший технический колледж, город Кокшетау» при управлении образования Акмолинской области",Акмолинская область,True,"Индекс 020000,
Акмолинская область
г. Кокшетау,  ул. Шевченко127","Акмолинская область, Индекс 020000,
Акмолинская область,
г. Кокшетау,  ул. Шевченко127",53.272149215113,69.408597186864
142,142,148,148,148,"Государственное коммунальное казенное предприятие «Высший технический колледж, город Щучинск, Бурабайский район» при управлении образования Акмолинской области",Акмолинская область,True,"Индекс 021700
Акмолинская область
г. Щучинск
ул. Абылай-хана, 50","Акмолинская область, Индекс 021700
Акмолинская область,
г. Щучинск
ул. Абылай-хана, 50",52.937223409739,70.203642579822
143,143,149,149,149,"Государственное коммунальное казенное предприятие «Строительно-технологический колледж, город Кокшетау» при управлении образования Акмолинской области",Акмолинская область,True,"Индекс 020000
Акмолинская область г. Кокшетау,
пр-кт Абылай-хана,1а         ","Акмолинская область, Индекс 020000
Акмолинская область, г. Кокшетау,
пр-кт Абылай-хана,1а         ",53.295567498214,69.388726292825
144,144,150,150,150,"Государственное коммунальное казенное предприятие «Аграрно-индустриальный колледж, город Атбасар, Атбасарский район» при управлении образования Акмолинской области",Акмолинская область,True,"Индекс 020400 
Акмолинская область, г. Атбасар
Микрорайон,1 д.12/1     ","Акмолинская область, Индекс 020400 
Акмолинская область,, г. Атбасар
Микрорайон,1 д.12/1     ",52.641883405224,70.433607218058
145,145,151,151,151,"Государственное коммунальное казенное предприятие «Индустриально-технический колледж, город Степногорск» при управлении образования Акмолинской области",Акмолинская область,True,"Индекс 0215001  Акмолинская область   г. Степногорск
мкр-н, 4","Акмолинская область, Индекс 0215001  Акмолинская область,   г. Степногорск
мкр-н, 4",52.3519541,71.8937101
146,146,152,152,152,"Государственное коммунальное казенное предприятие «Горнотехнический колледж, город Степногорск» при управлении образования Акмолинской области",Акмолинская область,True,"Индекс 021500
Акмолинская область
г. Степногорск
мкр-он 4, зд. 47, а/я 212","Акмолинская область, Индекс 021500
Акмолинская область,
г. Степногорск
мкр-он 4, зд. 47, а/я 212",52.3519541,71.8937101
147,147,153,153,153,"Государственное коммунальное казенное предприятие «Высший агротехнический колледж, село Чаглинка» при управлении образования Акмолинской области",Акмолинская область,True,"Индекс 021231
Акмолинская область
Зерендинский р-он, 
с. Чаглинка","Акмолинская область, Индекс 021231
Акмолинская область,
Зерендинский р-он, 
с. Чаглинка",52.91667,69.16667
148,148,154,154,154,"Государственное коммунальное казенное предприятие «Высший  колледж лесного хозяйства, экологии и туризма, город Щучинск, Бурабайский район» при управлении образования Акмолинской области",Акмолинская область,True,"Индекс 021700
Акмолинская область
г. Щучинск
мкр-н Бармашино, БСХТ","Акмолинская область, Индекс 021700
Акмолинская область,
г. Щучинск
мкр-н Бармашино, БСХТ",52.9354327,70.2014913
149,149,155,155,155,"Государственное коммунальное казенное предприятие «Сельскохозяйственный колледж, село Катарколь, Бурабайского района» при управлении образования Акмолинской области",Акмолинская область,True,"Индекс 021706
Акмолинская область
Бурабайский р-он
с. Катарколь, Студенческий переулок, дом 1","Акмолинская область, Индекс 021706
Акмолинская область,
Бурабайский р-он
с. Катарколь, Студенческий переулок, дом 1",52.91667,70.16667
150,150,156,156,156,Государственное коммунальное казенное предприятие «Кокшетауский высший казахский педагогический колледж имени Ж. Мусина» при управлении образования Акмолинской области,Акмолинская область,True,"Индекс 020008
Акмолинская область
г. Кокшетау
мкр. Боровской,76","Акмолинская область, Индекс 020008
Акмолинская область,
г. Кокшетау
мкр. Боровской,76",53.263366112143,69.416244835321
151,151,157,157,157,"Государственное коммунальное предприятие на праве хозяйственного ведения «Высший педагогический колледж, город Щучинск» при управлении образования Акмолинской области",Акмолинская область,True,"Индекс 021700
Акмолинская область
Бурабайский р-н
ул. Едомского 23","Акмолинская область, Индекс 021700
Акмолинская область,
Бурабайский р-н
ул. Едомского 23",52.938391805132,70.202117827815
152,152,158,158,158,"Государственное коммунальное казенное предприятие «Высший колледж культуры имени Акана серэ, город Кокшетау» при управлении образования Акмолинской области",Акмолинская область,True,"Индекс 020000
Акмолинская область
г. Кокшетау
ул. Джамбула,140 ","Акмолинская область, Индекс 020000
Акмолинская область,
г. Кокшетау
ул. Джамбула,140 ",53.2714043,69.3724802
153,153,159,159,159,"Государственное коммунальное казенное предприятие «Музыкальный колледж имени Биржан сала, город Кокшетау» при управлении образования Акмолинской области",Акмолинская область,True,"Индекс 020008
Акмолинская область
г. Кокшетау, ул. Ауэзова, 192","Акмолинская область, Индекс 020008
Акмолинская область,
г. Кокшетау, ул. Ауэзова, 192",53.286288396123,69.374371193989
154,154,160,160,160,"ГККП ""Кокшетауский высший медицинский колледж"" при управлении здравоохранения Акмолинской области",Акмолинская область,True,"Индекс 020000
Акмолинская область
г. Кокшетау, ул. Глинина, 54","Акмолинская область, Индекс 020000
Акмолинская область,
г. Кокшетау, ул. Глинина, 54",53.277143194935,69.363778815308
155,155,161,161,161,Многопрофильный колледж при КГУ им. Ш.Уалиханова,Акмолинская область,True, ,"Акмолинская область,  ",51.78506568654,69.900559970708
156,156,162,162,162,"Учреждение ""Высший Кокшетауский колледж ""Арна""",Акмолинская область,True,"Индекс 020000
Акмолинская область
г. Кокшетау
ул. Абая,139","Акмолинская область, Индекс 020000
Акмолинская область,
г. Кокшетау
ул. Абая,139",53.287430146025,69.405333766186
157,157,163,163,163,"Учреждение колледж ""Бурабай"" г. Кокшетау",Акмолинская область,True,"Индекс 020000
Акмолинская область
г.Кокшетау
ул. Локомотивная 9б","Акмолинская область, Индекс 020000
Акмолинская область,
г.Кокшетау
ул. Локомотивная 9б",53.289543654904,69.416297892768
158,158,164,164,164,Учреждение «Высший Многопрофильный колледж гражданской защиты»,Акмолинская область,True,"Индекс 020000
Акмолинская область
г. Кокшетау, мрн-он Коктем,1 ","Акмолинская область, Индекс 020000
Акмолинская область,
г. Кокшетау, мрн-он Коктем,1 ",52.923374494036,70.154738281926
159,159,165,165,165,"ТОО  ""Кокшетауский юридический колледж""",Акмолинская область,True,"Индекс 020000
Акмолинская область
г. Кокшетау, ул. Есенберлина 38","Акмолинская область, Индекс 020000
Акмолинская область,
г. Кокшетау, ул. Есенберлина 38",53.286750197078,69.384497203578
160,160,166,166,166,"Учреждение ""Высший казахский гуманитарно-технический колледж""",Акмолинская область,True,"Индекс 020000,
Акмолинская область
 г. Кокшетау, ул.  Капцевича 228","Акмолинская область, Индекс 020000,
Акмолинская область,
 г. Кокшетау, ул.  Капцевича 228",53.281696231972,69.420631062196
161,161,167,167,167,"Учреждение ""Кокшетауский гуманитарно-технический колледж""",Акмолинская область,True,"Индекс 020000
Акмолинская область
г. Кокшетау
ул. Джамбула, 35 ","Акмолинская область, Индекс 020000
Акмолинская область,
г. Кокшетау
ул. Джамбула, 35 ",51.052469386677,69.474782037686
162,162,168,168,168,Учреждение «Колледж Максат»,Акмолинская область,True,"Индекс 021501
Акмолинская область
г. Степногорск
мкр. 1
учебная зона, корпус 7","Акмолинская область, Индекс 021501
Акмолинская область,
г. Степногорск
мкр. 1
учебная зона, корпус 7",52.338269288809,71.877403199616
163,163,169,169,169,Наименование колледжа,Актюбинская область,True,"Индекс 030020, Актюбинская область, г.Актобе, ул. Есет батыра, 73","Актюбинская область, Индекс 030020, Актюбинская область,, г.Актобе, ул. Есет батыра, 73",50.304000498869,57.157815963569
164,164,170,170,170,ГККП «Актюбинский гуманитарный колледж»,Актюбинская область,True,"Индекс 030001, Актюбинская область, г.Актобе, ул. 8 Марта, 1","Актюбинская область, Индекс 030001, Актюбинская область,, г.Актобе, ул. 8 Марта, 1",50.277553079779,57.218877122374
165,165,171,171,171,"ГККП «Актюбинский колледж транспорта, коммуникаций и новых технологий»",Актюбинская область,True,"Индекс 030014, Актюбинская область, г.Актобе, аул К.Нокина, уч. 3""В""","Актюбинская область, Индекс 030014, Актюбинская область,, г.Актобе, аул К.Нокина, уч. 3""В""",50.313160049413,57.13682214053
166,166,172,172,172,ГККП «Актюбинский Высший сельскохозяйственный колледж»,Актюбинская область,True,"Индекс 030000, Актюбинская область, г.Актобе, ул.Гришина, 5","Актюбинская область, Индекс 030000, Актюбинская область,, г.Актобе, ул.Гришина, 5",50.276932433023,57.173646218958
167,167,173,173,173,ГККП «Актюбинский колледж связи и электротехники»,Актюбинская область,True,"Индекс 030002, Актюбинская область, г.Актобе, ул. Шернияза, 31","Актюбинская область, Индекс 030002, Актюбинская область,, г.Актобе, ул. Шернияза, 31",49.076526099386,54.673062625655
168,168,174,174,174,ГККП «Актюбинский музыкальный колледж им. А. Жубанова»,Актюбинская область,True,"Индекс 030002, Актюбинская область, г.Актобе, ул. Шернияза, 18","Актюбинская область, Индекс 030002, Актюбинская область,, г.Актобе, ул. Шернияза, 18",49.077455191443,54.673530922585
169,169,175,175,175,ГКП «Актюбинский Высший  медицинский колледж имени героя Советского Союза Маншук Маметовой»  на ПХВ,Актюбинская область,True,"Индекс 030012, Актюбинская область, г. Актобе, ул. Рыскулова, 267","Актюбинская область, Индекс 030012, Актюбинская область,, г. Актобе, ул. Рыскулова, 267",50.28898339732,57.149914259626
170,170,176,176,176,ГККП «Актюбинский Высший политехнический колледж»,Актюбинская область,True,"Индекс 030900, Актюбинская область, Уилский район, село Уил,
ул. Жолмырзаева, 42","Актюбинская область, Индекс 030900, Актюбинская область,, Уилский район, село Уил,
ул. Жолмырзаева, 42",49.077895995731,54.661118665087
171,171,177,177,177,ГККП «Уилский аграрный колледж»,Актюбинская область,True,"Индекс 030000, Актюбинская область, г.Актобе, ул. Гришина, 13","Актюбинская область, Индекс 030000, Актюбинская область,, г.Актобе, ул. Гришина, 13",50.276932433023,57.173646218958
172,172,178,178,178,КГУ «Актюбинский областной специальный комплекс «школа- интернат- колледж» для детей с нарушением слуха и зрения»,Актюбинская область,True,"Индекс 030000, Актюбинская область, г. Актобе, Ватутина, 1","Актюбинская область, Индекс 030000, Актюбинская область,, г. Актобе, Ватутина, 1",50.320008886196,57.139739635
173,173,179,179,179,ГККП «Актюбинский колледж строительства и бизнеса»,Актюбинская область,True,"Индекс 030012, Актюбинская область, г. Актобе, КА-168/2 мекемесі  Чекалина 44 ","Актюбинская область, Индекс 030012, Актюбинская область,, г. Актобе, КА-168/2 мекемесі  Чекалина 44 ",50.314697106515,57.12401107751
174,174,180,180,180,КГУ «Актюбинский многопрофильный колледж»,Актюбинская область,True,"Индекс 030007, Актюбинская область, г.Актобе, ул. Маресьева, 63","Актюбинская область, Индекс 030007, Актюбинская область,, г.Актобе, ул. Маресьева, 63",50.305183520683,57.146298138959
175,175,181,181,181,ГККП «Актюбинский колледж сервиса»,Актюбинская область,True,"Индекс 031100, Актюбинская область, Хромтауский район, г.Хромтау, ул. Есет-Батыра, 9","Актюбинская область, Индекс 031100, Актюбинская область,, Хромтауский район, г.Хромтау, ул. Есет-Батыра, 9",50.26105921262,58.439905000124
176,176,182,182,182,ГККП «Хромтауский горно- технический высший колледж»,Актюбинская область,True,"Индекс 030200, Актюбинская область, Алгинский район, г.Алга, ул. А.Байтурсынова, 20","Актюбинская область, Индекс 030200, Актюбинская область,, Алгинский район, г.Алга, ул. А.Байтурсынова, 20",49.890590198287,57.320111401994
177,177,183,183,183,ГККП «Алгинский индустриально- технический колледж»,Актюбинская область,True,"Индекс 030002, Актюбинская область, г.Актобе, ул. Гришина, 7","Актюбинская область, Индекс 030002, Актюбинская область,, г.Актобе, ул. Гришина, 7",50.276932433023,57.173646218958
178,178,184,184,184,ГККП «Актюбинский автомобильно - дорожный колледж»,Актюбинская область,True,"Индекс 030001, Актюбинская область, г.Актобе, ул. Герцена,19Б","Актюбинская область, Индекс 030001, Актюбинская область,, г.Актобе, ул. Герцена,19Б",50.276060095185,57.22166410518
179,179,185,185,185,ГККП «Актюбинский колледж промышленных технологий и управления»,Актюбинская область,True,"Индекс 030700, Актюбинская область, Мугалжарский район, г.Кандыагаш, ул. Трансформаторная, 2","Актюбинская область, Индекс 030700, Актюбинская область,, Мугалжарский район, г.Кандыагаш, ул. Трансформаторная, 2",49.462913311768,57.424484201439
180,180,186,186,186,ГККП «Кандыагашский промышленно-экономический колледж»,Актюбинская область,True,"Индекс 030100, Актюбинская область, Айтекебийский район, с.Комсомольское, ул.Ы.Алтынсарина-24","Актюбинская область, Индекс 030100, Актюбинская область,, Айтекебийский район, с.Комсомольское, ул.Ы.Алтынсарина-24",50.432618711283,60.492112635249
181,181,187,187,187,ГККП «Айтекебийский многопрофильный колледж»,Актюбинская область,True,"Индекс 031300, Актюбинская область, Мугалжарский район, г.Эмба, ул. Есет Батыра, 18А","Актюбинская область, Индекс 031300, Актюбинская область,, Мугалжарский район, г.Эмба, ул. Есет Батыра, 18А",48.834971384534,58.14705982718
182,182,188,188,188,ГККП «Эмбинский колледж сферы услуг»,Актюбинская область,True,"Индекс 031200, Актюбинская область, Шалкарский район, г. Шалкар, ул. Профессиональная, 25","Актюбинская область, Индекс 031200, Актюбинская область,, Шалкарский район, г. Шалкар, ул. Профессиональная, 25",47.8351962,59.6329217
183,183,189,189,189,ГККП «Шалкарский аграрно-технический колледж»,Актюбинская область,True,"Индекс 030500, Актюбинская область, Каргалинский район, с.Бадамша, ул. Пацаева, 11Б","Актюбинская область, Индекс 030500, Актюбинская область,, Каргалинский район, с.Бадамша, ул. Пацаева, 11Б",50.566374682281,58.282468070316
184,184,190,190,190,ГККП «Бадамшинский агротехнический колледж»,Актюбинская область,True,"Индекс 030604, Актюбинская область, Мартукский район, с.Жайсан, ул. Партизанская, 5","Актюбинская область, Индекс 030604, Актюбинская область,, Мартукский район, с.Жайсан, ул. Партизанская, 5",50.8491211,56.204895
185,185,191,191,191,КГУ «Жайсанский многопрофильный колледж»,Актюбинская область,True,"Индекс 033100, Актюбинская область, Байганинский район, с. Карауылкелды, ул. Барак батыра, 46","Актюбинская область, Индекс 033100, Актюбинская область,, Байганинский район, с. Карауылкелды, ул. Барак батыра, 46",48.695634,55.8838078
186,186,192,192,192,ГККП «Байганинский технический колледж»,Актюбинская область,True,"Индекс 031000, Актюбинская область, Кобдинский район, с. Кобда, ул.Алтынсарина, 4","Актюбинская область, Индекс 031000, Актюбинская область,, Кобдинский район, с. Кобда, ул.Алтынсарина, 4",50.142759713411,55.658680310314
187,187,193,193,193,ГККП «Кобдинский многопрофильный колледж»,Актюбинская область,True,"Ақтөбе облысы Қарғалы  селосы Родниковая көшесі -1 үй
   ","Актюбинская область, Ақтөбе облысы Қарғалы  селосы Родниковая көшесі -1 үй
   ",50.294924,57.2030963
188,188,194,194,194,«Областная специализированная школа-интернат-колледж олимпийского резерва имени Есет батыра»,Актюбинская область,True,"(Астана) Актюбинская область, г.Актобе,Пр.А.Молдагуловой-34","Актюбинская область, (Астана) Актюбинская область,, г.Актобе,Пр.А.Молдагуловой-34",50.151962707821,55.662941837526
189,189,195,195,195,ГКП «Высший колледж АРГУ имени К.Жубанова» на ПХВ,Актюбинская область,True,"Индекс 030005, Актюбинская область, г.Актобе, ул. Арынова, 1","Актюбинская область, Индекс 030005, Актюбинская область,, г.Актобе, ул. Арынова, 1",50.269517684481,57.221826378825
190,190,196,196,196,ЧУ «Актюбинский финансово-экономический колледж» (нет контингента),Актюбинская область,True,"Индекс 030000, Актюбинская область, г.Актобе, ул. Шернияза, 41","Актюбинская область, Индекс 030000, Актюбинская область,, г.Актобе, ул. Шернияза, 41",49.075811416412,54.672088732325
191,191,197,197,197,ЧУ «Актюбинский кооперативный колледж» (нет контингента),Актюбинская область,True,"Индекс 030007, Актюбинская область, г. Актобе, ул.  Красногорская, 11","Актюбинская область, Индекс 030007, Актюбинская область,, г. Актобе, ул.  Красногорская, 11",50.313160049413,57.13682214053
192,192,198,198,198,ЧУ «Многопрофильный колледж «Рауан»,Актюбинская область,True,"Индекс 030007, Актюбинская область, г.Актобе, ул. Маресьева, 10","Актюбинская область, Индекс 030007, Актюбинская область,, г.Актобе, ул. Маресьева, 10",50.306441309073,57.144745894309
193,193,199,199,199,ЧУ «Актюбинский колледж Нефти и Газа»,Актюбинская область,True,"Индекс 030006, Актюбинская область, г.Актобе, ул. Айтеке би, 52","Актюбинская область, Индекс 030006, Актюбинская область,, г.Актобе, ул. Айтеке би, 52",50.28622281751,57.224701203976
194,194,200,200,200,Негосударственное независимое некоммерческое образовательное учреждение «Экономико-правовой колледж»,Актюбинская область,True,"Индекс 030000, Актюбинская область, г.Актобе, пр. Абулхаир хана, 1-4","Актюбинская область, Индекс 030000, Актюбинская область,, г.Актобе, пр. Абулхаир хана, 1-4",48.825900572406,58.138051338787
195,195,201,201,201,ЧУ «Актюбинский гуманитарно-технический колледж»,Актюбинская область,True,"Индекс 030000, Ақтобе обласы, Ақтобе қ.,  Бр.Жубановых көш, 302А","Актюбинская область, Индекс 030000, Ақтобе обласы, Ақтобе қ.,  Бр.Жубановых көш, 302А",50.28195408186,57.161053222213
196,196,202,202,202,ТОО «Баишев Высший Медицинский колледж»,Актюбинская область,True,"Индекс 030000, Ақтобе обласы, Ақтобе қ.,  Тургенева көш, 72","Актюбинская область, Индекс 030000, Ақтобе обласы, Ақтобе қ.,  Тургенева көш, 72",50.306852189967,57.162242027541
197,197,203,203,203,"ЖШС ""Школа-Гимназия и Колледж КазГЮУ""",Актюбинская область,True,"Индекс 030000, Ақтобе обласы, Ақтөбе қ. Смагулова көш, 1","Актюбинская область, Индекс 030000, Ақтобе обласы, Ақтөбе қ. Смагулова көш, 1",50.292238509419,57.201764125937
198,198,204,204,204,ЧУ «Актюбинский технико-технологический колледж»,Актюбинская область,True,"Индекс 030000, Ақтобе обласы, Ақтобе қ., Арынова көш, 1","Актюбинская область, Индекс 030000, Ақтобе обласы, Ақтобе қ., Арынова көш, 1",50.269517684481,57.221826378825
199,199,205,205,205,ТОО «Актюбинский гуманитарно-технический универсальный мультипрофильный колледж»,Актюбинская область,True,"Индекс 030006, Ақтобе обласы, Ақтобе қ., Смагулова көш, 5В","Актюбинская область, Индекс 030006, Ақтобе обласы, Ақтобе қ., Смагулова көш, 5В",50.294118318844,57.202086493933
200,200,206,206,206,ТОО «Актюбинский колледж АО «Казахская академия транспорта и коммуникаций  им. М.Тынышпаева»,Актюбинская область,True,"Индекс 030008, Ақтобе обласы, Ақтөбе қ., Аз Наурыз көш, 5","Актюбинская область, Индекс 030008, Ақтобе обласы, Ақтөбе қ., Аз Наурыз көш, 5",50.290656215647,57.19852703493
201,201,207,207,207,ЧУ «Актюбинский строительно –монтажный колледж»,Актюбинская область,True,"Индекс 030006, Ақтобе обласы, Ақтобе қ., Айтеке би көш, 76","Актюбинская область, Индекс 030006, Ақтобе обласы, Ақтобе қ., Айтеке би көш, 76",50.289936587349,57.225578034867
202,202,208,208,208,ЧУ «Многопрофильный колледж «Болашак»,Актюбинская область,True,"Индекс 030012, Ақтобе обласы, Ақтөбе қ., Маресьева көш, 81","Актюбинская область, Индекс 030012, Ақтобе обласы, Ақтөбе қ., Маресьева көш, 81",50.301242182172,57.14936507733
203,203,209,209,209,ЧУ «Актюбинский учетно-финансовый колледж им.С.Раимова»,Актюбинская область,True,"Индекс 030700, Ақтобе обласы, Мугалжарский  ауданы, г.Кандыагаш, Интернациональная көш, 6","Актюбинская область, Индекс 030700, Ақтобе обласы, Мугалжарский  ауданы, г.Кандыагаш, Интернациональная көш, 6",49.453664300709,57.411597192945
204,204,210,210,210,ЧУ «Мугалжарский гуманитарно-технический колледж»,Актюбинская область,True,"Индекс 030005, Ақтобе обласы, Ақтөбе қ., Арынова көш, 1, 1","Актюбинская область, Индекс 030005, Ақтобе обласы, Ақтөбе қ., Арынова көш, 1, 1",50.271104420662,57.224458883155
205,205,211,211,211,ТОО «Актюбинский многопрофильный колледж АГУ Тарлан»,Актюбинская область,True,"Ақтөбе облысы, Алға ауданы, Бестамақ елдімекені, Алға көшесі №58","Актюбинская область, Ақтөбе облысы, Алға ауданы, Бестамақ елдімекені, Алға көшесі №58",50.262425483792,57.231618034296
206,206,212,212,212,ЧУ «Колледж медресе Актобе»,Актюбинская область,True,"г.Алматы, ул.Гоголя №124","Актюбинская область, г.Алматы, ул.Гоголя №124",50.26057527482,57.233350579621
207,207,215,215,215,ГККП Алматинский экономический колледж,Алматинская область,True,г. Есик ул. Абая №320,"Алматинская область, г. Есик ул. Абая №320",43.3555112,77.460614
208,208,216,216,216,ГККП Есикский гуманитарно-экономический колледж,Алматинская область,True,с. Ушконыр Карасайский район  ул.Адильбекова  №1,"Алматинская область, с. Ушконыр Карасайский район  ул.Адильбекова  №1",43.2232001,76.5939011
209,209,217,217,217,"ГККП Ушконырский
колледж водного хозяйства",Алматинская область,True,"г. Каскелен, ул.Победы №158","Алматинская область, г. Каскелен, ул.Победы №158",43.20011419454,76.623903739245
210,210,218,218,218,ГККП Каскеленский колледж культуры,Алматинская область,True,"г.Жаркент, ул.Ыбраймолдаева №78","Алматинская область, г.Жаркент, ул.Ыбраймолдаева №78",44.180970985527,80.011151162913
211,211,219,219,219,ГККП Жаркентский гуманитарно-технический колледж,Алматинская область,True,г. Талдыкорган ул.Тауелсіздік №173 «А»,"Алматинская область, г. Талдыкорган ул.Тауелсіздік №173 «А»",43.557208035059,79.453039220757
212,212,220,220,220,ГККП Талдыкорганский юридический колледж,Алматинская область,True,г. Талдыкорган ул.Жансугурова №226,"Алматинская область, г. Талдыкорган ул.Жансугурова №226",45.011991707973,78.347551138104
213,213,221,221,221,ГККП Талдыкорганский политехнический колледж,Алматинская область,True," г.Талдыкорган ул.Каблиса-Жырау, №211","Алматинская область,  г.Талдыкорган ул.Каблиса-Жырау, №211",45.007920919456,78.353000161402
214,214,222,222,222,ГККП Талдыкорганский агро-технический колледж,Алматинская область,True, г.Талдыкорган ул.Жансугурова №181а,"Алматинская область,  г.Талдыкорган ул.Жансугурова №181а",45.010291992226,78.353625032284
215,215,223,223,223,ГККП Талдыкорганский музыкальный колледж,Алматинская область,True, Ескельдинский район с.Жастар ул.Боранбаева №1,"Алматинская область,  Ескельдинский район с.Жастар ул.Боранбаева №1",43.206621302854,76.318936895728
216,216,224,224,224,ГККП Коксуский сельскохозяйственный колледж,Алматинская область,True, г.Талгар ул.Рыскулова  №68,"Алматинская область,  г.Талгар ул.Рыскулова  №68",43.33835929843,77.258618838614
217,217,225,225,225,ГККПТалгарский колледж агробизнеса и менеджмента им.М.Бейсебаева,Алматинская область,True,г.Сарканд ул.Бекбаева №2,"Алматинская область, г.Сарканд ул.Бекбаева №2",44.310432600434,76.816747131013
218,218,226,226,226,ГККП Сарканский гуманитарный колледж,Алматинская область,True,"г.Таллгар, ул. Павлова №24","Алматинская область, г.Таллгар, ул. Павлова №24",43.309183405788,77.23075201737
219,219,227,227,227,ГКППХВ Талгарский медицинский колледж,Алматинская область,True,"г.Талдыкорган, ул.Жансугурова №228","Алматинская область, г.Талдыкорган, ул.Жансугурова №228",45.011830197187,78.348371925926
220,220,228,228,228,ГКППХВ Талдыкорганский медицинский колледж,Алматинская область,True,"г.Талдыкорган, ул.Тауелсыздык №173","Алматинская область, г.Талдыкорган, ул.Тауелсыздык №173",45.01573591261,78.356257620433
221,221,229,229,229,ГККП колледж сервис и технологий,Алматинская область,True,"Карасайский район, с.Ушконыр, ул.Жибек жолы №76 ","Алматинская область, Карасайский район, с.Ушконыр, ул.Жибек жолы №76 ",43.198319991677,76.637720035686
222,222,230,230,230,ГККП Многопрофильный колледж  профессионального  обучения Карасайский район,Алматинская область,True,"г.Талдыкорган, ул.Тәуелсіздік  №175","Алматинская область, г.Талдыкорган, ул.Тәуелсіздік  №175",43.256853895731,76.311956116835
223,223,231,231,231,ГККП колледж промышленной индустрии и новых технологий,Алматинская область,True,"г.Талгар, ул.Кунаева №209","Алматинская область, г.Талгар, ул.Кунаева №209",43.303215654902,77.217937628696
224,224,232,232,232,ГККП Талгарский политехнический колледж,Алматинская область,True,"Алакольский район, г.Ушарал, ул.Дулепова №18","Алматинская область, Алакольский район, г.Ушарал, ул.Дулепова №18",46.16426057935,80.952838706296
225,225,233,233,233,ГККП Алакольский гуманитарно-технический колледж,Алматинская область,True," Жамбылский район, с.Узынагаш, ул.Сарыбай би №71","Алматинская область,  Жамбылский район, с.Узынагаш, ул.Сарыбай би №71",43.22659718023,76.299052590644
226,226,234,234,234,ГККП Узынагашский профессинальный колледж им. Жамбыла,Алматинская область,True,"Енбекшиказахский район, с.Шелек, ул.Нургазина №2","Алматинская область, Енбекшиказахский район, с.Шелек, ул.Нургазина №2",43.5970521,78.2516696
227,227,235,235,235,ГККП Шелекский политехнический колледж,Алматинская область,True,"Райымбекский район, с.Сарыжаз, ул.Алим №1","Алматинская область, Райымбекский район, с.Сарыжаз, ул.Алим №1",42.9137602,79.6078548
228,228,236,236,236,ГККП Сарыжазский профессионально-технический колледж,Алматинская область,True,"Уйгурский район, с.Шонжы, ул.Арзиева №120","Алматинская область, Уйгурский район, с.Шонжы, ул.Арзиева №120",43.549516144718,79.813320081568
229,229,237,237,237,ГККП Чунджинский политехнический колледж,Алматинская область,True,"Балхашский район, с.Баканас, ул.Кунаева №250","Алматинская область, Балхашский район, с.Баканас, ул.Кунаева №250",44.799442703277,76.287515068561
230,230,238,238,238,ГККП Баканасский аграрно- индустриальный колледж,Алматинская область,True,"Карасайский район, г.Каскелен, ул.Гаражная №34","Алматинская область, Карасайский район, г.Каскелен, ул.Гаражная №34",43.202758,76.6317126
231,231,239,239,239,ГККП Каскеленский профессионально-технический колледж Санджара Жандосова,Алматинская область,True,"Аксуский район, с.Капал, ул.Майлина №1","Алматинская область, Аксуский район, с.Капал, ул.Майлина №1",45.1257297,79.0436264
232,232,240,240,240,ГККП Капальский профессионально-технический колледж,Алматинская область,True,"г.Алматы, ул.Райымбека №480а          ","Алматинская область, г.Алматы, ул.Райымбека №480а          ",43.1830496,76.7408472
233,233,241,241,241,ГККП Алматинский областной колледж инновационных технологий в сфере сервиса и питания,Алматинская область,True,"г.Сарканд, ул.Койбагарова №5","Алматинская область, г.Сарканд, ул.Койбагарова №5",44.310432600434,76.816747131013
234,234,242,242,242,ГККП Сарканский политехнический колледж,Алматинская область,True,"Алакольский район, с. Токжайлау, ул.Центральная  №92","Алматинская область, Алакольский район, с. Токжайлау, ул.Центральная  №92",43.868144317843,77.07650901614
235,235,243,243,243,ГККП Токжайлауский политехнический колледж,Алматинская область,True,"Каратальский район, с.Бастобе, ул.С.Юн №27","Алматинская область, Каратальский район, с.Бастобе, ул.С.Юн №27",45.2715959,77.9889376
236,236,244,244,244,ГККП Бастобинский сервисно- технический колледж,Алматинская область,True,"г.Текели, ул.Сатпаева №66","Алматинская область, г.Текели, ул.Сатпаева №66",43.857276426472,77.072969388726
237,237,245,245,245,ГККП Текелийский  профессиональный  колледж,Алматинская область,True,"Панфиловский район, г.Жаркент, ул.Абдуллина №76","Алматинская область, Панфиловский район, г.Жаркент, ул.Абдуллина №76",44.154811903906,79.985743770369
238,238,246,246,246,ГККП Жаркентский многопрофильный колледж,Алматинская область,True,"г.Талдыкорган, ул.Ярославского №6","Алматинская область, г.Талдыкорган, ул.Ярославского №6",45.037571901939,78.364743375389
239,239,247,247,247,ГККП Талдыкорганский гуманитарно - технический колледж,Алматинская область,True,"г.Капшагай, ул.Сейфуллина №3","Алматинская область, г.Капшагай, ул.Сейфуллина №3",43.882471594391,77.08847537313
240,240,248,248,248,ГККП Капшагайский многопрофильный колледж,Алматинская область,True,"Аксуский район, п.Жансугурово, ул.Кабанбай батыра №4","Алматинская область, Аксуский район, п.Жансугурово, ул.Кабанбай батыра №4",45.403224800435,79.510124912257
241,241,249,249,249,ГККП Аксуский политехнический колледж,Алматинская область,True,"Коксуский район, ст.Коксу","Алматинская область, Коксуский район, ст.Коксу",45.0048393,77.9322927
242,242,250,250,250,ГККП Коксуский политехнический колледж,Алматинская область,True,"с.Жаланаш Райымбекского района, ул.Жендиева №4","Алматинская область, с.Жаланаш Райымбекского района, ул.Жендиева №4",43.0508392,78.6446872
243,243,251,251,251,ГККП Колсайский профессионально-технический колледж»,Алматинская область,True,с.Жаугашты Илийского района при ЛА-155/ 4 ул.Центральная№1,"Алматинская область, с.Жаугашты Илийского района при ЛА-155/ 4 ул.Центральная№1",43.40668,76.6968249
244,244,252,252,252,ГККП Профессионально-технический колледж» с.Жаугашты,Алматинская область,True,"г.Капшагай, с.Заречное, учреждение ЛА 155/14","Алматинская область, г.Капшагай, с.Заречное, учреждение ЛА 155/14",43.7057489,77.0241705
245,245,253,253,253,ГККП  «Профессиональный колледж  с.Заречное,Алматинская область,True,"г.Капшагай, с.Заречное, спецучреждение ЛА 155/8","Алматинская область, г.Капшагай, с.Заречное, спецучреждение ЛА 155/8",43.7057489,77.0241705
246,246,254,254,254,ГККП Профессионально-технический  колледж при Учреждении ЛА – 155/8,Алматинская область,True,"Панфиловский район г.Жаркент, ул. Асановой №18","Алматинская область, Панфиловский район г.Жаркент, ул. Асановой №18",44.1721763,80.0064991
247,247,256,256,256,Учреждение «Медицинский колледж «ДИАНА»,Алматинская область,False,"Енбекшиказахский район г.Есик, ул.Алматинская №1","Алматинская область, Енбекшиказахский район г.Есик, ул.Алматинская №1",43.358970020599,77.430129990648
248,248,257,257,257,Учреждение «Жетысуский юридический колледж»,Алматинская область,False,Енбекшиказахский район с.Тургень ул.Аубакирова  №106,"Алматинская область, Енбекшиказахский район с.Тургень ул.Аубакирова  №106",43.3963654,77.5938975
249,249,258,258,258,Учреждение «Тургенский  колледж непрерывного образования»,Алматинская область,False,"Енбекшиказахский район г.Есик, ул.Абая №320","Алматинская область, Енбекшиказахский район г.Есик, ул.Абая №320",43.3555112,77.460614
250,250,259,259,259,ТОО Есикский медицинский колледж,Алматинская область,False,"г.Капшагай, мкр «Ивушка»  №5","Алматинская область, г.Капшагай, мкр «Ивушка»  №5",43.863549192372,77.063429186616
251,251,260,260,260,Учреждение Капшагайский профессиональный колледж,Алматинская область,False,г.Талгар  ул.Кунаева №201а,"Алматинская область, г.Талгар  ул.Кунаева №201а",43.304026348964,77.217317247823
252,252,261,261,261,Учреждение «Колледж г. Талгар Университета им. Д.А.Кунаева,Алматинская область,False,"г.Талгар, ул.Павлова №24а","Алматинская область, г.Талгар, ул.Павлова №24а",43.309183405788,77.23075201737
253,253,262,262,262,Учреждение «Талгарский медицинский колледж»,Алматинская область,False,"Карасайский район г.Каскелен, ул.Жангозина №13а","Алматинская область, Карасайский район г.Каскелен, ул.Жангозина №13а",43.209197492066,76.617638903819
254,254,263,263,263,Учреждение«Каскеленский гуманитарно-технический  колледж»,Алматинская область,False,"Илийский район п.Отеген батыра, Абая  №27а","Алматинская область, Илийский район п.Отеген батыра, Абая  №27а",43.41675,77.0231096
255,255,264,264,264,Негосударстенное учреждение«Колледж экономики и права»,Алматинская область,False,"Илийский район  п.Отеген батыра, ул.Ленина №7  ","Алматинская область, Илийский район  п.Отеген батыра, ул.Ленина №7  ",43.41675,77.0231096
256,256,265,265,265,Учреждение «Политехнический колледж «Прогресс»,Алматинская область,False,"г.Талдыкорган, м-н Самал, дом 32","Алматинская область, г.Талдыкорган, м-н Самал, дом 32",44.798382098989,76.291780565073
257,257,266,266,266,Учреждение «Гуманитарно-экономический  колледж «Билим»,Алматинская область,False,"г. Талдыкорган, ул.Абылайхана №142","Алматинская область, г. Талдыкорган, ул.Абылайхана №142",43.310019999421,77.24430998659
258,258,267,267,267,Учреждение «Жетысуский Социально-Гуманитарный Колледж»,Алматинская область,False,"г.Талдыкорган, ул Каблиса-жырау №211","Алматинская область, г.Талдыкорган, ул Каблиса-жырау №211",45.007920919456,78.353000161402
259,259,268,268,268,Негосударстенное учреждение«Талдыкорганский гуманитарно-экономический колледж»,Алматинская область,False,"г.Талдыкорган, ул Тәуелсіздік  №173а","Алматинская область, г.Талдыкорган, ул Тәуелсіздік  №173а",43.256853895731,76.311956116835
260,260,269,269,269,Учреждение «Талдыкорганский юридический колледж»,Алматинская область,False,"г.Талдыкорган, ул. Акын Сара №120","Алматинская область, г.Талдыкорган, ул. Акын Сара №120",43.196322086001,76.640165681001
261,261,270,270,270,Учреждение образование «Талдыкорганский колледж экономики и транспорта»,Алматинская область,False,"Панфиловский район, с.Жаскент,   ул.Домалак ана № 22","Алматинская область, Панфиловский район, с.Жаскент,   ул.Домалак ана № 22",43.226966612612,76.322569612564
262,262,271,271,271,Учреждение «Жаркентский финансово-экономический колледж»,Алматинская область,False,"г.Талдыкорган,  ул. Желтоксан №222","Алматинская область, г.Талдыкорган,  ул. Желтоксан №222",43.216314703037,76.284984782133
263,263,272,272,272,Учреждение «Талдыкорганский колледж бизнеса  права и новых технологий»,Алматинская область,False,Карасайский район г.Каскелен ул.Жангозина №14,"Алматинская область, Карасайский район г.Каскелен ул.Жангозина №14",43.209197492066,76.617638903819
264,264,273,273,273,Учреждение «Медицинский колледж «Жардем»,Алматинская область,False,"г.Капшагай, мкр. «Ивушка» №5","Алматинская область, г.Капшагай, мкр. «Ивушка» №5",43.863549192372,77.063429186616
265,265,274,274,274,Учреждение образование «Капшагайский колледж «Байтерек»,Алматинская область,False,Ескельдинский район с.Карабулак ул.Киров №10,"Алматинская область, Ескельдинский район с.Карабулак ул.Киров №10",43.856248219431,77.076311165968
266,266,275,275,275,Учреждение «Колледж- Сервис»,Алматинская область,False,"Енбекшиказахский район с.Шелек, ул.Кагазбаева № 2","Алматинская область, Енбекшиказахский район с.Шелек, ул.Кагазбаева № 2",43.5970521,78.2516696
267,267,276,276,276,ТОО «Шелекский медицинский  колледж»,Алматинская область,False,"г.Талгар, ул.Асфандиярова №19","Алматинская область, г.Талгар, ул.Асфандиярова №19",43.297274047039,77.228790001873
268,268,277,277,277,"ТОО «Талгарский
гуманитарно-
экономический
колледж»",Алматинская область,False,"Жамбылский  район, с.Узынагаш, ул.Суюнбая №1","Алматинская область, Жамбылский  район, с.Узынагаш, ул.Суюнбая №1",43.211122,76.3192618
269,269,278,278,278,"Учреждение «Медицинский
олледжУзынагаш»",Алматинская область,False,"Енбекшиказахский район, г.Есик, ул.Талгарская №5","Алматинская область, Енбекшиказахский район, г.Есик, ул.Талгарская №5",43.366354980211,77.432111221101
270,270,279,279,279,Учреждение «Есикский профессионально - технический колледж»,Алматинская область,False,"г.Талдыкорган, ул.Рустембекова №31","Алматинская область, г.Талдыкорган, ул.Рустембекова №31",45.014502808924,78.366013401358
271,271,280,280,280,ТОО «Колледж «Сенім» г.Талдыкорган,Алматинская область,False,г.Талгар  ул. Лермонтова 40,"Алматинская область, г.Талгар  ул. Лермонтова 40",43.30819002041,77.231309990041
272,272,281,281,281,Учреждение «Талгарский экономический колледж»,Алматинская область,False,"г.Каскелен ул.Барибаева,64","Алматинская область, г.Каскелен ул.Барибаева,64",43.200499737935,76.626917176369
273,273,282,282,282,"Учреждение образования колледж ""Аяжан Карасай""",Алматинская область,False,г.Есик ул Абая 320,"Алматинская область, г.Есик ул Абая 320",43.3555112,77.460614
274,274,283,283,283,"ТОО Медицинский колледж ""Шапагат"" г.Есик",Алматинская область,False," Талгарский район, с.Панфилова","Алматинская область,  Талгарский район, с.Панфилова",43.318032122913,77.251335655462
275,275,284,284,284,Многопрофильный колледж непрерывного образования ,Алматинская область,False," Енбекшиказахский район, с.Каракемер,  ул. Орымбетова 85","Алматинская область,  Енбекшиказахский район, с.Каракемер,  ул. Орымбетова 85",43.358660099729,77.462949583988
276,276,285,285,285,Каракемерский профессиональный колледж,Алматинская область,False,"Карасайский район, г.Каскелен, ул. Жибек жолы № 164","Алматинская область, Карасайский район, г.Каскелен, ул. Жибек жолы № 164",43.19829545136,76.635278972903
277,277,286,286,286,Колледж медресе Ушконыр,Алматинская область,False,"Уйгурский район, с.Шонжы, ул.Арзиева №131","Алматинская область, Уйгурский район, с.Шонжы, ул.Арзиева №131",43.549516144718,79.813320081568
278,278,287,287,287,Медицинский колледж «Дауа»,Алматинская область,False,г.Атырау ул.Курмангазы 9,"Алматинская область, г.Атырау ул.Курмангазы 9",47.107269990774,51.885819980821
279,279,289,289,289,КГП «Атырауский колледж сервиса»,Атырауская область,True," г.Атырау пр.Азаттык, 152а","Атырауская область,  г.Атырау пр.Азаттык, 152а",47.081917415877,51.901078397362
280,280,290,290,290,КГП «Атырауский индустриальный колледж»,Атырауская область,True,"Атырауская область                                Курмангазинский район,  село  Ганюшкино","Атырауская область, Атырауская область,                                Курмангазинский район,  село  Ганюшкино",46.5969692,49.2474748
281,281,291,291,291,КГП «Курмангазинский аграрно-технический колледж»,Атырауская область,True,"Атырауская область, Макатский район, п.Доссор участок №6","Атырауская область, Атырауская область,, Макатский район, п.Доссор участок №6",47.5180881,52.9793384
282,282,292,292,292,КГП «Макатский технологический колледж нефти и газа»,Атырауская область,True," г. Атырау
 ул. Курмангазы, 9","Атырауская область,  г. Атырау
 ул. Курмангазы, 9",47.107269990774,51.885819980821
283,283,293,293,293,КГП «Атырауский колледж энергетики и строительства»,Атырауская область,True," г. Атырау  Авангард,  4 мкр.","Атырауская область,  г. Атырау  Авангард,  4 мкр.",47.098491894954,51.892091572397
284,284,294,294,294,КГП «Атырауский колледж транспорта и коммуникации»,Атырауская область,True,"Атырауская область                                 Индерский район  ул.Махамбета,14","Атырауская область, Атырауская область,                                 Индерский район  ул.Махамбета,14",48.30036582472,51.413132435279
285,285,295,295,295,КГП «Индерский многопрофильный сельскохозяйственный колледж»,Атырауская область,True," Атырауская область,    Жылойский район                                                                   г.Кульсары  9-ый участок №160","Атырауская область,  Атырауская область,,    Жылойский район                                                                   г.Кульсары  9-ый участок №160",46.9516905,53.99547
286,286,296,296,296,КГП «Жылыойский технологический колледж нефти и газа им.С.Утебаева»,Атырауская область,True, Атырауская область  Махамбетский район             село Сарайчик,"Атырауская область,  Атырауская область,  Махамбетский район             село Сарайчик",47.5012817,51.7177124
287,287,297,297,297,КГП «Махамбетский многопрофильный сельскохозяйственный колледж»,Атырауская область,True,"Атырауская область, Кызылкугинский район, с.Сагыз","Атырауская область, Атырауская область,, Кызылкугинский район, с.Сагыз",48.282412708858,53.671767230546
288,288,298,298,298,КГП «Кызылкугинский аграрно-технический колледж»,Атырауская область,True," г.Атырау,  пос. Таскала,  УГ-157/9","Атырауская область,  г.Атырау,  пос. Таскала,  УГ-157/9",47.0213247,51.8847645
289,289,299,299,299,ГУ «Колледж при исправительном учреждении УГ-157/9»,Атырауская область,True,г.Атырау ул.Сатыбалдиева 47,"Атырауская область, г.Атырау ул.Сатыбалдиева 47",47.120399990641,51.950029969192
290,290,300,300,300,ГУ «Колледж при исправительном учреждении УГ-157/11»,Атырауская область,True,"  г. Атырау,  ул. Баймуханова,45 б","Атырауская область,   г. Атырау,  ул. Баймуханова,45 б",47.134003987133,51.94007310641
291,291,301,301,301,КГП «Атырауский аграрно-технический колледж»,Атырауская область,True," г. Атырау
ул. Баймуханова,45","Атырауская область,  г. Атырау
ул. Баймуханова,45",47.130869993535,51.940070005106
292,292,302,302,302,КГП «Атырауский политехнический высший колледж им. С.Мукашева»,Атырауская область,True," г. Атырау
ул. Азаттык,152а","Атырауская область,  г. Атырау
ул. Азаттык,152а",47.081917415877,51.901078397362
293,293,303,303,303,КГП «Атырауский гуманитарный колледж им.К.Дутбаевой»,Атырауская область,True," г. Атырау
ул. Сатпаева,54а","Атырауская область,  г. Атырау
ул. Сатпаева,54а",47.103857109756,51.878096302048
294,294,304,304,304,Атырауский музыкальный колледж «Академия народной музыки им.Д.Нурпейсовой»,Атырауская область,True," г. Атырау Авангард,
 ул. Курмангазы,7","Атырауская область,  г. Атырау Авангард,
 ул. Курмангазы,7",47.094809998337,51.874910011829
295,295,305,305,305,Атырауский медицинский колледж,Атырауская область,True,"г.Атырау,                             Баймуханова 51а","Атырауская область, г.Атырау,                             Баймуханова 51а",47.13358258695,51.942916331786
296,296,306,306,306,Атырауский колледж бизнеса и права,Атырауская область,True,"г. Атырау
пр. Студенческий, 205","Атырауская область, г. Атырау
пр. Студенческий, 205",47.117758,51.9145003
297,297,307,307,307,Прикаспийский современный высший колледж,Атырауская область,True,"г. Атырау
ул. Байжигитова, 62","Атырауская область, г. Атырау
ул. Байжигитова, 62",47.082435920407,51.878289176094
298,298,308,308,308,Атырауский технико-экономический колледж,Атырауская область,True,"г. Атырау
ул. Худина 5","Атырауская область, г. Атырау
ул. Худина 5",47.197998099587,51.950453422941
299,299,309,309,309,Колледж  Атырауского инженерно-гуманитарного института,Атырауская область,True,"г.Атырау
ул.Махамбета 107 а","Атырауская область, г.Атырау
ул.Махамбета 107 а",47.09947741921,51.927085598897
300,300,310,310,310,Атырауский многопрофильный колледж «Болашак»,Атырауская область,True,"Атырауская область Жылыойский район г.Кульсары ул.Караманова, 50","Атырауская область, Атырауская область, Жылыойский район г.Кульсары ул.Караманова, 50",46.9516905,53.99547
301,301,311,311,311,Кульсаринский гуманитарно-технический колледж,Атырауская область,True,"Атырауская область, Жылыойский район г.Кульсары","Атырауская область, Атырауская область,, Жылыойский район г.Кульсары",46.9516905,53.99547
302,302,312,312,312,Колледж «Болашак -Жылыой»,Атырауская область,True,"Жылыойский район                                                            г.Кульсары, ул.Таубаева, 55","Атырауская область, Жылыойский район                                                            г.Кульсары, ул.Таубаева, 55",46.9516905,53.99547
303,303,313,313,313,Колледж «Мед-Профи» (частный),Атырауская область,True,"ЗКО, г.Уральск, ул.Асана Тайманова, 221","Атырауская область, ЗКО, г.Уральск, ул.Асана Тайманова, 221",48.542186111001,51.754688102168
304,304,315,315,315,ГККП «Западно-Казахстанский индустриальный колледж»,Западно-Казахстанкая область,True,"ЗКО, г.Уральск, ул.Циолковская, 2","Западно-Казахстанкая область, ЗКО, г.Уральск, ул.Циолковская, 2",51.243019998652,51.418401976776
305,305,316,316,316,ГККП «Уральский технологический колледж «Сервис»,Западно-Казахстанкая область,True,"ЗКО, г.Уральск, ул.Евразия, 238","Западно-Казахстанкая область, ЗКО, г.Уральск, ул.Евразия, 238",51.22324721479,51.403957610672
306,306,317,317,317,ГККП «Уральский политехнический колледж»,Западно-Казахстанкая область,True,"ЗКО, г.Уральск, ул. Пойменная, 2/1","Западно-Казахстанкая область, ЗКО, г.Уральск, ул. Пойменная, 2/1",51.245588884338,51.383457738619
307,307,318,318,318,ГККП «Уральский колледж информационных технологий»,Западно-Казахстанкая область,True,"ЗКО, г.Уральск, мкр.Строитель 21/1              ","Западно-Казахстанкая область, ЗКО, г.Уральск, мкр.Строитель 21/1              ",51.249400009983,51.415309976514
308,308,319,319,319,ГККП «Колледж сервиса и новых технологий»,Западно-Казахстанкая область,True,"ЗКО, Чингирлауский р-н, с. Чингирлау, ул. Утемисова, 14","Западно-Казахстанкая область, ЗКО, Чингирлауский р-н, с. Чингирлау, ул. Утемисова, 14",49.426265996614,46.848013534606
309,309,320,320,320,ГККП «Шынгырлауский колледж»,Западно-Казахстанкая область,True,"ЗКО, Жангалинский район, с.Жангала, ул.Д.Нурпеисова, 34","Западно-Казахстанкая область, ЗКО, Жангалинский район, с.Жангала, ул.Д.Нурпеисова, 34",49.217218104385,50.304867481023
310,310,321,321,321,ГККП «Жангалинский колледж»,Западно-Казахстанкая область,True,"ЗКО, Жанибекский район, с.Жанибек, ул.Абая, 1","Западно-Казахстанкая область, ЗКО, Жанибекский район, с.Жанибек, ул.Абая, 1",49.431025888809,46.86108919287
311,311,322,322,322,ГККП «Жанибекский колледж имени Ихсанова М.Б.»,Западно-Казахстанкая область,True,"ЗКО, Теректинский район, с.Подстепное, ул.Целинная, 1","Западно-Казахстанкая область, ЗКО, Теректинский район, с.Подстепное, ул.Целинная, 1",51.1522467,51.4835526
312,312,323,323,323,ГККП «Теректинский колледж»,Западно-Казахстанкая область,True,"ЗКО, г.Уральск, ул.А.Иманова, 39","Западно-Казахстанкая область, ЗКО, г.Уральск, ул.А.Иманова, 39",49.430470401156,46.840989583564
313,313,324,324,324,ГККП «Дорожно-транспортный колледж имени А.Иманова»,Западно-Казахстанкая область,True,"ЗКО, район Байтерек, с.Калиненское, ул.Кирова, 19","Западно-Казахстанкая область, ЗКО, район Байтерек, с.Калиненское, ул.Кирова, 19",51.1871394,50.8599068
314,314,325,325,325,ГККП «Колледж Байтерек»,Западно-Казахстанкая область,True,"ЗКО, Акжаикский район, с.Чапаево, ул.Есенжанова, 38","Западно-Казахстанкая область, ЗКО, Акжаикский район, с.Чапаево, ул.Есенжанова, 38",50.186083272281,51.179329935388
315,315,326,326,326,ГККП «Акжаикский аграрно-технический колледж»,Западно-Казахстанкая область,True,"ЗКО, г.Аксай, ул.Сырыма-Датова, 1","Западно-Казахстанкая область, ЗКО, г.Аксай, ул.Сырыма-Датова, 1",51.237544017489,51.43650303196
316,316,327,327,327,ГККП «Аксайский технический колледж»,Западно-Казахстанкая область,True,"ЗКО, Казталовский район, с.Жалпактал, ул.Масалиева, 21","Западно-Казахстанкая область, ЗКО, Казталовский район, с.Жалпактал, ул.Масалиева, 21",49.6699236,49.475897
317,317,328,328,328,ГККП «Жалпакталский колледж аграрных и отраслевых технологий»,Западно-Казахстанкая область,True,"ЗКО, Бокейординский район, с.Бокейорда, ул.Бокей хана, 65","Западно-Казахстанкая область, ЗКО, Бокейординский район, с.Бокейорда, ул.Бокей хана, 65",48.685612198546,47.983359905376
318,318,329,329,329,ГККП «Бокейординский колледж»,Западно-Казахстанкая область,True,"ЗКО, Сырымский район, с.Жымпиты, ул.Жумагалиева, 18  ","Западно-Казахстанкая область, ЗКО, Сырымский район, с.Жымпиты, ул.Жумагалиева, 18  ",50.255711097389,52.584460830588
319,319,330,330,330,ГККП «Сырымский колледж»,Западно-Казахстанкая область,True,"ЗКО, Таскалинский район, с.Таскала, ул.М.Маметова, 52            ","Западно-Казахстанкая область, ЗКО, Таскалинский район, с.Таскала, ул.М.Маметова, 52            ",51.111401513102,50.278832856055
320,320,331,331,331,ГККП «Таскалинский колледж»,Западно-Казахстанкая область,True,"ЗКО, Каратобинский район, с.Шоптикуль, ул.Курмангалиева, 16","Западно-Казахстанкая область, ЗКО, Каратобинский район, с.Шоптикуль, ул.Курмангалиева, 16",49.694991373447,53.519865345793
321,321,332,332,332,ГККП «Каратобинский колледж»,Западно-Казахстанкая область,True,"ЗКО, г.Уральск, ул.Широкая, 2","Западно-Казахстанкая область, ЗКО, г.Уральск, ул.Широкая, 2",51.190466870013,51.330873458945
322,322,333,333,333,ГККП «Уральский колледж»,Западно-Казахстанкая область,True,"ЗКО, г.Уральск, пр.Нурсултан Назарбаев, 173","Западно-Казахстанкая область, ЗКО, г.Уральск, пр.Нурсултан Назарбаев, 173",51.201610002295,51.370499986862
323,323,334,334,334,ГККП «Высший педагогический колледж им.Ж.Досмухамедова»,Западно-Казахстанкая область,True,"ЗКО, г.Уральск, ул.Т.Масина, 48                     ","Западно-Казахстанкая область, ЗКО, г.Уральск, ул.Т.Масина, 48                     ",51.210202584607,51.374626984529
324,324,335,335,335,ГККП «Высший аграрно-технический колледж»,Западно-Казахстанкая область,True,"ЗКО, г.Уральск, ул.А.Кусаинова, 38","Западно-Казахстанкая область, ЗКО, г.Уральск, ул.А.Кусаинова, 38",51.212417879706,51.36312458262
325,325,336,336,336,ГККП «Музыкальный колледж имени Курмангазы»,Западно-Казахстанкая область,True,"ЗКО, Бурлинский район, с.Бурлин, ул.Садовая, 97","Западно-Казахстанкая область, ЗКО, Бурлинский район, с.Бурлин, ул.Садовая, 97",51.162347573151,52.990278161864
326,326,337,337,337,ГККП «Бурлинский колледж»,Западно-Казахстанкая область,True,"ЗКО, г.Уральск, ул.Жангирхана, 67","Западно-Казахстанкая область, ЗКО, г.Уральск, ул.Жангирхана, 67",51.169110010922,51.297550020412
327,327,338,338,338,ГКП на ПХВ «Западно-Казахстанский высший медицинский колледж»,Западно-Казахстанкая область,True,"ЗКО, г.Уральск, ул.К.Аманжолова, 108","Западно-Казахстанкая область, ЗКО, г.Уральск, ул.К.Аманжолова, 108",51.203815616297,51.373274899727
328,328,339,339,339,Учреждение «Уральский гуманитарно-технический колледж»,Западно-Казахстанкая область,True,"ЗКО, г.Уральск,  ул.Жангирхана, 67/3","Западно-Казахстанкая область, ЗКО, г.Уральск,  ул.Жангирхана, 67/3",51.169110010922,51.297550020412
329,329,340,340,340,ЧУ «Уральский медицинский колледж «МАКСАТ»,Западно-Казахстанкая область,True,"ЗКО, г.Уральск, ул.М.Маметова, 81","Западно-Казахстанкая область, ЗКО, г.Уральск, ул.М.Маметова, 81",51.164250718182,53.011518488183
330,330,341,341,341,"НУО «Международный Колледж Цифровых Технологий, Архитектуры и Права»",Западно-Казахстанкая область,True,"ЗКО, г.Уральск, пр.Нурсултан Назарбаев, 215","Западно-Казахстанкая область, ЗКО, г.Уральск, пр.Нурсултан Назарбаев, 215",51.215320616595,51.364549841436
331,331,342,342,342,НОУ «Высший инженерно- технологический колледж»,Западно-Казахстанкая область,True,"ЗКО, г.Уральск, ул.А.Тайманова, 135","Западно-Казахстанкая область, ЗКО, г.Уральск, ул.А.Тайманова, 135",49.221820266427,50.307310503664
332,332,343,343,343,НУ «Уральский гуманитарный колледж»,Западно-Казахстанкая область,True,"ЗКО, г.Уральск, ул.Фрунзе, 20/1","Западно-Казахстанкая область, ЗКО, г.Уральск, ул.Фрунзе, 20/1",51.201100005396,51.372989998838
333,333,344,344,344,НУО «Республиканский высший технический колледж»,Западно-Казахстанкая область,True,"ЗКО, г.Уральск, ул.Д.Нурпеисова, 12/1","Западно-Казахстанкая область, ЗКО, г.Уральск, ул.Д.Нурпеисова, 12/1",49.212891994609,50.30362117584
334,334,345,345,345,ЧУ «Западно-Казахстанский академический колледж «АТиСО» ,Западно-Казахстанкая область,True,"ЗКО, г.Уральск, ул. Г. Караша, 194","Западно-Казахстанкая область, ЗКО, г.Уральск, ул. Г. Караша, 194",51.2467507,51.4433861
335,335,346,346,346,ЧУ «Евразийский индустриально-экономический  колледж»,Западно-Казахстанкая область,True,"ЗКО, г.Уральск, ул.Жангирхана, 31","Западно-Казахстанкая область, ЗКО, г.Уральск, ул.Жангирхана, 31",51.185935298533,51.323243235854
336,336,347,347,347,ЧУ «Уральский многопрофильный колледж  «Болашақ»,Западно-Казахстанкая область,True,"ЗКО, Бурлинский район, г.Аксай, ул.С.Датова, 4/1","Западно-Казахстанкая область, ЗКО, Бурлинский район, г.Аксай, ул.С.Датова, 4/1",51.1739477,53.010385
337,337,348,348,348,НОУ «Западно-Казахстанский инженерно- экономический колледж»,Западно-Казахстанкая область,True,"Жамбылская область,
г. Тараз
ул. Толе би 66","Западно-Казахстанкая область, Жамбылская область,,
г. Тараз
ул. Толе би 66",42.901232988993,71.35902699612
338,338,350,350,350,ГККП «Жамбылский политехнический высший колледж»,Жамбылская область,True,"г. Тараз,
ул. Пушкина 52","Жамбылская область, г. Тараз,
ул. Пушкина 52",43.588216721746,73.767092832288
339,339,351,351,351,ГККП  «Жамбылский гум.  колледж имени Абая,Жамбылская область,True,"г. Тараз
ул. Пушкина154","Жамбылская область, г. Тараз
ул. Пушкина154",42.8859799,71.3656452
340,340,352,352,352,ГККП «Казахско – турецкий учетно-экономический колледж,Жамбылская область,True,"г. Тараз, ул. Ниеткалиева, №20 корпус «А»","Жамбылская область, г. Тараз, ул. Ниеткалиева, №20 корпус «А»",42.903802880114,71.364172570827
341,341,353,353,353,ГККП «Жамбылский медицинский колледж»,Жамбылская область,True,"Жамбылская область, Т.Рыскуловский  р-н, с.Кулан,ул.Жибек жолы, 318","Жамбылская область, Жамбылская область,, Т.Рыскуловский  р-н, с.Кулан,ул.Жибек жолы, 318",42.911017676599,72.685778747696
342,342,354,354,354,Куланский агротехнический высший колледж,Жамбылская область,True,"Жамбылская область, Кордайский район, село Ногайбай, ул.Момыш-улы/15","Жамбылская область, Жамбылская область,, Кордайский район, село Ногайбай, ул.Момыш-улы/15",43.04243859511,74.706317230457
343,343,355,355,355,ГККП Кордайский сельскохозяйственный колледж,Жамбылская область,True,"Жамбылская область, Сарысуский район
г. Жанатас
ул С.Муканова № 1А","Жамбылская область, Жамбылская область,, Сарысуский район
г. Жанатас
ул С.Муканова № 1А",43.5624124,69.7328738
344,344,356,356,356,ГККП Жанатасский многоотраслевой колледж,Жамбылская область,True,"Жамбылская область, Таласский район, город Каратау.
ул. Т.Рыскулова №1","Жамбылская область, Жамбылская область,, Таласский район, город Каратау.
ул. Т.Рыскулова №1",43.176031589124,70.466544577138
345,345,357,357,357,"ГККП ""Каратауский строительно- технический колледж""",Жамбылская область,True,"ул. Толе би, 196","Жамбылская область, ул. Толе би, 196",42.902712017718,71.328762961239
346,346,358,358,358,Таразский колледж сервиса и технологий,Жамбылская область,True,"Жамбылская область, Байзакский р/н                           с. Сарыкемер, ул. Желтоксан №59","Жамбылская область, Жамбылская область,, Байзакский р/н                           с. Сарыкемер, ул. Желтоксан №59",43.000083581079,71.508229566509
347,347,359,359,359,ГККП «Байзакский колледж № 3»,Жамбылская область,True,"Жамбылская область, Кордайский р/н,
с.Беткайнар, ул Кол 1","Жамбылская область, Жамбылская область,, Кордайский р/н,
с.Беткайнар, ул Кол 1",43.2106454,74.4644958
348,348,360,360,360,ГККП «Беткайнарский колледж № 7»,Жамбылская область,True,"Жамбылская область, Мойынкумскийрайон,
сМойынкум, улОмарова 64","Жамбылская область, Жамбылская область,, Мойынкумскийрайон,
сМойынкум, улОмарова 64",44.928371676288,72.695627890071
349,349,361,361,361,ГККП «Мойынкумский колледж № 8»,Жамбылская область,True,"Жамбылская область, Меркенский район,
с. Сарымолдаева,
улОмарходжаева № 1","Жамбылская область, Жамбылская область,, Меркенский район,
с. Сарымолдаева,
улОмарходжаева № 1",42.8702311,73.2328514
350,350,362,362,362,КГКП «Меркенский колледж № 9»,Жамбылская область,True,"Жамбылская область, Шуский район, г. Шу,
Ул. «Шу-Толеби»
Автожолы 25","Жамбылская область, Жамбылская область,, Шуский район, г. Шу,
Ул. «Шу-Толеби»
Автожолы 25",43.6019576,73.7621641
351,351,363,363,363,"ГККП «Шуский колледж
№ 10»",Жамбылская область,True,"Жамбылская область,
Сарысуский район,
село Уюм,
ул Б Сагынтаева № 53","Жамбылская область, Жамбылская область,,
Сарысуский район,
село Уюм,
ул Б Сагынтаева № 53",43.7275052,69.9409889
352,352,364,364,364,ГККП «Сарысуский колледж № 11»,Жамбылская область,True,"Жамбылская область,
г. Тараз,
ул Отеген батыра 49","Жамбылская область, Жамбылская область,,
г. Тараз,
ул Отеген батыра 49",42.900419986295,71.44109001916
353,353,365,365,365,ГККП «Жамбылский индустриально - технологиякий колледж»,Жамбылская область,True,"Жамбылская область,
г Тараз, ул Абая 278","Жамбылская область, Жамбылская область,,
г Тараз, ул Абая 278",42.871709998172,71.392010036573
354,354,366,366,366,ГККП Таразский колледж железнодорожного транспорта и коммуникаций,Жамбылская область,True,"Жамбылская область,
г. Тараз, улНиеткалиева 106","Жамбылская область, Жамбылская область,,
г. Тараз, улНиеткалиева 106",42.920040827212,71.313623799235
355,355,367,367,367,КГКП «Колледж №15 при исправительном учрежденииә управления образования Жамбылской области,Жамбылская область,True,"Жамбылская область,
Жуалынский район,
село Акбастау,
ул  Рыскулбекова 7","Жамбылская область, Жамбылская область,,
Жуалынский район,
село Акбастау,
ул  Рыскулбекова 7",42.615413108196,70.774931726407
356,356,368,368,368,ГККП «Жуалынский колледж № 16»,Жамбылская область,True,"Жамбылский район,
с Орнек, ул Муканова 32","Жамбылская область, Жамбылский район,
с Орнек, ул Муканова 32",43.580049937713,73.769204030067
357,357,369,369,369,ГККП «Жамбылский  колледж № 17»,Жамбылская область,True,Каратауский горно-технологический колледж университета имени М.Х.Дулати,"Жамбылская область, Каратауский горно-технологический колледж университета имени М.Х.Дулати",44.317543394164,72.195130226507
358,358,371,371,371, ,Жамбылская область,True,"Жамбылская область г. Тараз
Мкр-н Мынбулак/23","Жамбылская область, Жамбылская область, г. Тараз
Мкр-н Мынбулак/23",42.879810017943,71.337160035659
359,359,372,372,372,"Учреждение  Современный
гуманитарно-технический
колледж»",Жамбылская область,False,"Жамбылская область, г.Тараз ул. Койгелды 157","Жамбылская область, Жамбылская область,, г.Тараз ул. Койгелды 157",42.892855154528,71.365542087488
360,360,373,373,373,Учреждение «Таразский политехнический колледж»,Жамбылская область,False,"Жамбылская область
г. Тараз
ул. Рахимова1","Жамбылская область, Жамбылская область,
г. Тараз
ул. Рахимова1",42.906130820502,71.349636286788
361,361,374,374,374,Учреждение «Колледж модельного искусства и бизнеса «Аспара»,Жамбылская область,False,"Жамбылская область,
г. Тараз, Ж.Аппасова 25","Жамбылская область, Жамбылская область,,
г. Тараз, Ж.Аппасова 25",42.904880278593,71.343224766564
362,362,375,375,375,Учреждение Таразский гуманитарно-технический колледж,Жамбылская область,False, Жамбылская область   г. Тараз мкр.  «Каратау»  34 дом,"Жамбылская область,  Жамбылская область,   г. Тараз мкр.  «Каратау»  34 дом",42.898169990116,71.342450022391
363,363,376,376,376,Учреждение Колледж Тараз-Ғасыр,Жамбылская область,False,"Жамбылская область, Г. Тараз, ул.  Акбозова 27","Жамбылская область, Жамбылская область,, Г. Тараз, ул.  Акбозова 27",43.021088211341,71.512700976577
364,364,377,377,377,"Колледж информатики, связи и технологии",Жамбылская область,False,"Жамбылская область г. Тараз
 ул. Сулейманова22","Жамбылская область, Жамбылская область, г. Тараз
 ул. Сулейманова22",42.906270574559,71.366667426027
365,365,378,378,378,Учреждение«Колледж профессионального образования «ALEM»(УчреждениеТаразский колледж техники и бизнеса),Жамбылская область,False,"Жамбылская область, Таласский район, г. Каратау, ул. Т.Рыскулова/3,","Жамбылская область, Жамбылская область,, Таласский район, г. Каратау, ул. Т.Рыскулова/3,",43.176302503716,70.462534050484
366,366,379,379,379,"Учреждение «Каратауский колледж технологий,,образования и бизнеса»",Жамбылская область,False,"Жамбылская область
г. Тараз
ул. Пушкина 57","Жамбылская область, Жамбылская область,
г. Тараз
ул. Пушкина 57",42.849527794332,71.361055165232
367,367,380,380,380,Учреждение «Колледж «Болашак»,Жамбылская область,False,"Жамбылская область, г. Тараз
ул. Сулейманова 24","Жамбылская область, Жамбылская область,, г. Тараз
ул. Сулейманова 24",42.907539993947,71.365409983027
368,368,381,381,381,Учреждение Таразский колледж «Парасат»,Жамбылская область,False,"Жамбылская область, г.Тараз, ул.Ленин 28","Жамбылская область, Жамбылская область,, г.Тараз, ул.Ленин 28",42.851146717021,71.364551676141
369,369,382,382,382,Учреждение «Білім» профессиональный гуманитарно-технический колледж,Жамбылская область,False,"Жамбылская область, г.Тараз , ул.Рыскулова 32Б","Жамбылская область, Жамбылская область,, г.Тараз , ул.Рыскулова 32Б",42.607483503822,70.747747622494
370,370,383,383,383,Учреждение «Таразский специализированный колледж»,Жамбылская область,False,"Жамбылская область, Меркенский район, с. Мерке улица Сарымолдаева/13,","Жамбылская область, Жамбылская область,, Меркенский район, с. Мерке улица Сарымолдаева/13,",42.868145593846,73.189723833087
371,371,384,384,384,Учреждение Меркенский колледж экономики и строительства  им.Аскарова,Жамбылская область,False,"Жамбылская область,
Кордайск р-н
с. Кордай
ул. Толе би102","Жамбылская область, Жамбылская область,,
Кордайск р-н
с. Кордай
ул. Толе би102",43.046306298602,74.711461958807
372,372,385,385,385,Учреждение Гуманитарно-экономический колледж «Кордай»,Жамбылская область,False,"Жамбылская область, Шуйский район
город Шу улица Автобазовская/2 Б","Жамбылская область, Жамбылская область,, Шуйский район
город Шу улица Автобазовская/2 Б",42.86648488737,73.216380296841
373,373,386,386,386,Учреждение Шуский железнодорожный колледж,Жамбылская область,False,"Жамбылская область, Шуйский р/н
г. Шу
ул. Сейфуллина/24","Жамбылская область, Жамбылская область,, Шуйский р/н
г. Шу
ул. Сейфуллина/24",43.660511418088,73.766880228076
374,374,387,387,387,Учреждение Шуский гуманитарный колледж,Жамбылская область,False,"Жамбылская область, Шуйский р/н
г. Шу
пер.Б.Шолака/3","Жамбылская область, Жамбылская область,, Шуйский р/н
г. Шу
пер.Б.Шолака/3",43.6019576,73.7621641
375,375,388,388,388,Учреждение Гуманитарно-технический колледж «Алмас»,Жамбылская область,False,"Жамбылская область, Кордайский р-н,  с.Кордай
ул. Жибек жолы/78","Жамбылская область, Жамбылская область,, Кордайский р-н,  с.Кордай
ул. Жибек жолы/78",43.027073979856,74.708852085615
376,376,389,389,389,Учреждение  Гуманитарно-технический колледж «Береке»,Жамбылская область,False,"Жамбылская область
г. Тараз
ул.Жубанышева №1 корпус-2","Жамбылская область, Жамбылская область,
г. Тараз
ул.Жубанышева №1 корпус-2",42.902175785462,71.359743229747
377,377,390,390,390,Многоотраслевой колледж «Астана»,Жамбылская область,False,"г.Тараз, Рыспек батыра 13 б","Жамбылская область, г.Тараз, Рыспек батыра 13 б",42.908752017146,71.345627015152
378,378,391,391,391,Таразский инновационный многопрофильный колледж,Жамбылская область,False,Толеби 89-Б,"Жамбылская область, Толеби 89-Б",43.037919617741,71.155405925194
379,379,392,392,392,"Һибатулла Тарази
 медресе-колледжі",Жамбылская область,False,Юридический адрес,"Жамбылская область, Юридический адрес",44.317543394164,72.195130226507
380,380,394,394,394,Карагандинская область,Карагандинская область,True," . г. Караганда,
  пр. Бухар-Жырау, 9","Карагандинская область,  . г. Караганда,
  пр. Бухар-Жырау, 9",49.816381814804,73.077810338269
381,381,395,395,395,КГКП «Карагандинский политехнический колледж»,Карагандинская область,True,"г. Караганда
Бульвар Мира, 22","Карагандинская область, г. Караганда
Бульвар Мира, 22",49.814337964348,73.089185466448
382,382,396,396,396,КГКП «Карагандинский гуманитарный колледж»,Карагандинская область,True,"г. Караганда,
 ул. Комисcарова, 36","Карагандинская область, г. Караганда,
 ул. Комисcарова, 36",49.799032281059,73.086747793987
383,383,397,397,397,КГКП «Карагандинский колледж искусств имени  Таттимбета»,Карагандинская область,True," г. Темиртау,
 пр. Республики 26","Карагандинская область,  г. Темиртау,
 пр. Республики 26",50.06418720822,72.988566287322
384,384,398,398,398,КГКП «Темиртауский политехнический колледж»,Карагандинская область,True," г.Сарань,
 проспект Ленина 14","Карагандинская область,  г.Сарань,
 проспект Ленина 14",49.802343384271,72.829191103964
385,385,399,399,399,"КГКП «Саранский гуманитарно-технический колледж»
им. Абая Кунанбаева»",Карагандинская область,True," Г.Шахтинск,
 проспект Абая 9","Карагандинская область,  Г.Шахтинск,
 проспект Абая 9",49.703811198194,72.58727381494
386,386,400,400,400,КГКП «Шахтинский технологический колледж»,Карагандинская область,True,"Карагандинская обл, Абайский район,
село Агрогородок","Карагандинская область, Карагандинская обл, Абайский район,
село Агрогородок",49.6397095,72.7438965
387,387,401,401,401,КГКП «Абайсктй многопрофильный колледж»,Карагандинская область,True,"г. Каркаралинск,
 ул.Т.Аубакирова, 133","Карагандинская область, г. Каркаралинск,
 ул.Т.Аубакирова, 133",49.414505012992,75.493105862054
388,388,402,402,402,КГКП «Каркаралинсий сельскохозяйственный колледж имени М. Адекенова»,Карагандинская область,True,"г. Жезказган,
ул. Байконурова,19","Карагандинская область, г. Жезказган,
ул. Байконурова,19",47.786894607258,67.698667481401
389,389,403,403,403,КГКП «Жезказганский политехнический колледж»,Карагандинская область,True,"г. Жезказган,
ул. Гагарина,74","Карагандинская область, г. Жезказган,
ул. Гагарина,74",49.785508316733,76.397954434181
390,390,404,404,404,КГКП «Жезказганский гуманитарный колледж»,Карагандинская область,True,"г. Жезказган,
ул. Байконурова, 17","Карагандинская область, г. Жезказган,
ул. Байконурова, 17",47.786567880673,67.699528470495
391,391,405,405,405,КГКП «Жезказганский музыкальный колледж»,Карагандинская область,True,"г. Балхаш, ул. Караменде би, 17","Карагандинская область, г. Балхаш, ул. Караменде би, 17",46.843611610515,74.979705072464
392,392,406,406,406,КГКП «Балхашский гуманитарно-технический колледж»,Карагандинская область,True,"Нұраауданы,
Киевкапоселкасы, Резника к-сі 76","Карагандинская область, Нұраауданы,
Киевкапоселкасы, Резника к-сі 76",49.727533734201,69.694456385141
393,393,407,407,407,КГКП «Нуринский многопрофильный колледж»,Карагандинская область,True,"г. Караганда,
ул. Чкалова, 9","Карагандинская область, г. Караганда,
ул. Чкалова, 9",49.812837694684,73.072662676253
394,394,408,408,408,КГП «Медицинский колледж г. Караганды»,Карагандинская область,True,"г. Жезказган,
ул. Тарадая, 8","Карагандинская область, г. Жезказган,
ул. Тарадая, 8",47.791698317878,67.720156669486
395,395,409,409,409,КГКП «Медицинский колледж г. Жезказган»,Карагандинская область,True,"г. Балхаш,
ул. Желтоксан,  23","Карагандинская область, г. Балхаш,
ул. Желтоксан,  23",46.832884786107,74.994503825435
396,396,410,410,410,КГКП «Медицинский колледж г. Балхаш»,Карагандинская область,True,"г. Караганда,
ул.Магнитогорская, 24","Карагандинская область, г. Караганда,
ул.Магнитогорская, 24",49.879217715878,73.196601268461
397,397,411,411,411,КГУ «Карагандинский горно-индустриальный  колледж»,Карагандинская область,True,"г. Караганда
ул. Социалистическая 3.","Карагандинская область, г. Караганда
ул. Социалистическая 3.",49.903032652382,73.098923080237
398,398,412,412,412,КГУ «Карагандинский агротехнический колледж»,Карагандинская область,True,"г. Караганда,
ул. Столичная, 2а","Карагандинская область, г. Караганда,
ул. Столичная, 2а",49.880045386907,73.194366736894
399,399,413,413,413,КГУ «Карагандинский индустриально-технологический колледж»,Карагандинская область,True,"г. Караганда,ул.Ермекова, 15","Карагандинская область, г. Караганда,ул.Ермекова, 15",49.799811881874,73.096546909351
400,400,414,414,414,КГУ «Карагандинский профессионально-технический колледж»,Карагандинская область,True,"г. Караганда, ул. Баженова, 164","Карагандинская область, г. Караганда, ул. Баженова, 164",49.793568579384,73.05369241771
401,401,415,415,415,КГУ «Карагандинский колледж питания и сервиса»,Карагандинская область,True,"г. Караганды, ул. Ермекова, 27","Карагандинская область, г. Караганды, ул. Ермекова, 27",49.79536431832,73.090195186944
402,402,416,416,416,КГУ «Карагандинский машиностроительный колледж»,Карагандинская область,True,"г. Караганда,
ул. Зональная, 75","Карагандинская область, г. Караганда,
ул. Зональная, 75",49.777251495636,73.095457461196
403,403,417,417,417,КГУ «Карагандинский колледж технологии и сервиса»,Карагандинская область,True,"г. Караганда,
ст. Сортировочная,
ул. Локомотивная, 22а","Карагандинская область, г. Караганда,
ст. Сортировочная,
ул. Локомотивная, 22а",49.960932779149,73.19689851305
404,404,418,418,418,КГУ «Карагандинский железнодорожный колледж»,Карагандинская область,True,"г. Караганда
ул. Крипичная, 8«а»","Карагандинская область, г. Караганда
ул. Крипичная, 8«а»",49.8383231,73.1156017
405,405,419,419,419,КГУ «Карагандинский технико-строительный колледж»,Карагандинская область,True,"г. Караганда,
ул. Муканова 21/2","Карагандинская область, г. Караганда,
ул. Муканова 21/2",49.769285996337,73.146613777218
406,406,420,420,420,КГУ «Карагандинский транспортно-технологический колледж»,Карагандинская область,True,"г. Темиртау,
ул. Казахстанская, 7","Карагандинская область, г. Темиртау,
ул. Казахстанская, 7",50.087594217662,72.909647064707
407,407,421,421,421,КГУ «Темиртауский колледж торговли и питания»,Карагандинская область,True,"г. Темиртау,
71 квартал","Карагандинская область, г. Темиртау,
71 квартал",50.046248,72.980985
408,408,422,422,422,КГУ «Темиртауский технический колледж»,Карагандинская область,True,"г. Темиртау ,
71квартал","Карагандинская область, г. Темиртау ,
71квартал",50.0590783,73.0317327
409,409,423,423,423,КГУ «Темиртауский профессионально-технический колледж»,Карагандинская область,True,"г. Темиртау,
 ул. Дмитрова,1","Карагандинская область, г. Темиртау,
 ул. Дмитрова,1",50.053669800203,72.997255457758
410,410,424,424,424,КГУ «Темиртауский индустриально-технологический колледж»,Карагандинская область,True,"101200, г.Сарань,
 ул. Кольцевая, 12","Карагандинская область, 101200, г.Сарань,
 ул. Кольцевая, 12",49.79964182451,72.852842985625
411,411,425,425,425,КГУ «Саранский технический колледж»,Карагандинская область,True," г. Шахтинск,
 ул. Московская, 30","Карагандинская область,  г. Шахтинск,
 ул. Московская, 30",49.707238706624,72.596618939469
412,412,426,426,426,КГУ «Шахтинский горно-индустриальный  колледж»,Карагандинская область,True," г. Балхаш, ул. Алимжанова, 9","Карагандинская область,  г. Балхаш, ул. Алимжанова, 9",46.832924683966,74.966364938284
413,413,427,427,427,КГУ «Балхашский колледж сервиса»,Карагандинская область,True," г. Балхаш, ул. Мира, 7","Карагандинская область,  г. Балхаш, ул. Мира, 7",46.83926734972,74.983059197573
414,414,428,428,428,КГУ «Балхашский технический колледж имени «Халық   қаһарманы Республики Казахстан» РакымжанаКошкарбаева»,Карагандинская область,True," г. Сатпаев,
 ул. Кусаинова, 23а","Карагандинская область,  г. Сатпаев,
 ул. Кусаинова, 23а",50.063214495768,73.708406169249
415,415,429,429,429,«Сатпаевский индустриальный колледж»,Карагандинская область,True," г. Каражал
ул. Абая, 1","Карагандинская область,  г. Каражал
ул. Абая, 1",49.635384590195,72.848890504264
416,416,430,430,430,«Каражальский горно-технический колледж»,Карагандинская область,True,"  Шетский район
село Аксу-Аюлы
 ул. Жапакова 1","Карагандинская область,   Шетский район
село Аксу-Аюлы
 ул. Жапакова 1",48.761117010732,73.665408740596
417,417,431,431,431,«Шетский агротехнический колледж»,Карагандинская область,True," Жанааркинский
 район, п. Атасу,
 ул. Дружбы, 1","Карагандинская область,  Жанааркинский
 район, п. Атасу,
 ул. Дружбы, 1",48.692468956649,71.636329129156
418,418,432,432,432,«Аграрный колледж имени ГалымаЖарылгапова»,Карагандинская область,True," Улытауский р-н,  п.Карсакбай    ул.Сатпаев 3/1","Карагандинская область,  Улытауский р-н,  п.Карсакбай    ул.Сатпаев 3/1",50.059974798961,73.709314239076
419,419,433,433,433,«Карсакпайский агротехнический колледж»,Карагандинская область,True," Карагандинская обл.
 Актогайский район
С .Актогай, ул.Нарманбет 6.","Карагандинская область,  Карагандинская обл.
 Актогайский район
С .Актогай, ул.Нарманбет 6.",46.805387617464,75.022367702342
420,420,434,434,434,«Актогайский аграрно-технический колледж»,Карагандинская область,True,"Каркаралинский район с.Егиндыбулак, ул.Казыбекби, 16","Карагандинская область, Каркаралинский район с.Егиндыбулак, ул.Казыбекби, 16",49.784951019001,76.377338476655
421,421,435,435,435, «Егиндыбулакский агротехнический колледж»,Карагандинская область,True,"с.РостовкаБухаржырауского района, ул.Центральная, 12","Карагандинская область, с.РостовкаБухаржырауского района, ул.Центральная, 12",50.104357102003,72.904121881772
422,422,436,436,436, «Бухар-Жырауский агротехнический колледж»,Карагандинская область,True,"г. Сатпаев, пр. Сатпаева,101а
 ","Карагандинская область, г. Сатпаев, пр. Сатпаева,101а
 ",49.523184541182,72.841169743292
423,423,437,437,437,ЧУ «Медицинский колледж «Денсаулык»,Карагандинская область,True,"г. Караганда,
 Бульвар Мира 50","Карагандинская область, г. Караганда,
 Бульвар Мира 50",49.819662217996,73.103605726344
424,424,438,438,438,ЧУ «Карагандинский коммерческий колледж»,Карагандинская область,True,"г. Караганда,
ул. Ермекова 11/2","Карагандинская область, г. Караганда,
ул. Ермекова 11/2",49.781633713181,73.070562171317
425,425,439,439,439,ЧУ «Карагандинский колледж моды»,Карагандинская область,True,"г. Караганда,
11 «А» микрорайон","Карагандинская область, г. Караганда,
11 «А» микрорайон",49.778776909122,73.178270716769
426,426,440,440,440,ЧУ «Колледж «Сервис»,Карагандинская область,True,"г. Караганда,
ул. Муканова 3","Карагандинская область, г. Караганда,
ул. Муканова 3",49.769593696003,73.143856885444
427,427,441,441,441,ЧУ «Карагандинский банковский колледж»,Карагандинская область,True,"г. Караганда,
пр. Бухар-Жырау, 12","Карагандинская область, г. Караганда,
пр. Бухар-Жырау, 12",49.816007185642,73.079524940382
428,428,442,442,442,ЧУ «Многопрофильный гуманитарно-технический колледж»,Карагандинская область,True,"г. Караганда,
пр. БухарЖырау, 74 а.","Карагандинская область, г. Караганда,
пр. БухарЖырау, 74 а.",49.798330799583,73.092598278584
429,429,443,443,443,ТОО «Карагандинский юридический колледж «Фемида»,Карагандинская область,True,"г. Караганда, Муканова, 30","Карагандинская область, г. Караганда, Муканова, 30",49.775440408744,73.147981117083
430,430,444,444,444,ЧУ «Карагандинский колледж актуального образования «Болашак»,Карагандинская область,True,"г. Караганда,
ул. Академическая, 9","Карагандинская область, г. Караганда,
ул. Академическая, 9",49.779753987575,73.06254136053
431,431,445,445,445,"ЧУ «Колледж экономики, бизнеса  и права Карагандинского экономического университета Казпотребсоюза»",Карагандинская область,True,"г. Караганда,
ул. Ермекова 49/2","Карагандинская область, г. Караганда,
ул. Ермекова 49/2",49.791550300918,73.083063528446
432,432,446,446,446,ЧУ «Современный многопрофильный колледж»,Карагандинская область,True,"г. Темиртау,
ул. Луначарского 48/1","Карагандинская область, г. Темиртау,
ул. Луначарского 48/1",50.059843580266,72.938828241517
433,433,447,447,447,ЧУ «Темиртауский медицинский колледж»,Карагандинская область,True,"г. Жезказган,
 Байконурова, 123","Карагандинская область, г. Жезказган,
 Байконурова, 123",47.801729989146,67.696574687816
434,434,448,448,448,ЧУ «Жезказганский индустриально-гуманитарный колледж»,Карагандинская область,True,"г. Караганды
ул. Балхашская, 42","Карагандинская область, г. Караганды
ул. Балхашская, 42",49.780562589774,73.112599930313
435,435,449,449,449,ЧУ «Казахский естественно – гуманитарный колледж»,Карагандинская область,True,"г.Караганда,
ул. Анжерская, 24","Карагандинская область, г.Караганда,
ул. Анжерская, 24",49.778594015994,73.064704813559
436,436,450,450,450,«Карагандинский колледж экономики и статистики»,Карагандинская область,True,"г. Караганда,
ул. Ермекова, 28","Карагандинская область, г. Караганда,
ул. Ермекова, 28",49.799458291288,73.097855408256
437,437,451,451,451,«Колледж им. Д. Кунаева»,Карагандинская область,True,"г. Караганда,
Бульвар Мира, 35","Карагандинская область, г. Караганда,
Бульвар Мира, 35",49.817258959049,73.101228027743
438,438,452,452,452,"ЧУ «Колледж
иностранных языков»",Карагандинская область,True,"г. Балхаш,
ул. Алимжанова,
дом 1.","Карагандинская область, г. Балхаш,
ул. Алимжанова,
дом 1.",49.806701596736,73.08253513327
439,439,453,453,453,ЧУ «Балхашский колледж актуального образования академика Ж.С. Акылбаева»,Карагандинская область,True,"г. Караганда,
ул. Тулепова,12,","Карагандинская область, г. Караганда,
ул. Тулепова,12,",49.812735353807,73.110994339297
440,440,454,454,454,ЧУ «Бизнес - колледж Международный Бизнес-Академии»,Карагандинская область,True,"г.Караганда
ул. Язева 13 а.","Карагандинская область, г.Караганда
ул. Язева 13 а.",49.772669100097,73.133659126765
441,441,455,455,455,ЧУ «Карагандинский колледж»,Карагандинская область,True,"100300 г. Балхаш, ул. Казбековой 12","Карагандинская область, 100300 г. Балхаш, ул. Казбековой 12",46.840664617177,74.981212138655
442,442,456,456,456,ЧУ «Балхашский  многопрофильный колледж»,Карагандинская область,True,"г. Сатпаев, 
ул. Абая 1","Карагандинская область, г. Сатпаев, 
ул. Абая 1",49.635384590195,72.848890504264
443,443,457,457,457,ЧУ «Технологический колледж корпорации «Казахмыс»,Карагандинская область,True,"г. Темиртау,
пр. Строителей, 28.","Карагандинская область, г. Темиртау,
пр. Строителей, 28.",50.055327997569,72.995785788165
444,444,458,458,458,"ЧУ «Темиртауский технологический колледж»,",Карагандинская область,True,"г.Караганда
 ул.Жамбыла 19","Карагандинская область, г.Караганда
 ул.Жамбыла 19",49.818517900919,73.086078079923
445,445,459,459,459,ТОО «Карагандинский медико-технический колледж»,Карагандинская область,True,"Карагандинская область, город Темиртау, проспект Республики 37/2.","Карагандинская область, Карагандинская область,, город Темиртау, проспект Республики 37/2.",50.060834279312,72.985387869638
446,446,460,460,460,"ЧУ «Темиртауский многопрофильный колледж ""Мирас""",Карагандинская область,True,"100300
Карагандинская область,
г. Балхаш, ул. Ленина 36","Карагандинская область, 100300
Карагандинская область,,
г. Балхаш, ул. Ленина 36",50.240138485208,73.068250777697
447,447,461,461,461,ЧУ «Политехнический колледж корпорации «Казахмыс»,Карагандинская область,True,"г. Жезказган,
ул. Гоголя, 5","Карагандинская область, г. Жезказган,
ул. Гоголя, 5",47.792697608374,67.686593601334
448,448,462,462,462,ЧУ «Жезказганский колледж Бизнеса и транспорта»,Карагандинская область,True,Ул. Лободы 40,"Карагандинская область, Ул. Лободы 40",48.67066296687,73.345653992763
449,449,463,463,463,Карагандинский медицинский интерколледж,Карагандинская область,True,"г. Караганда, ул.Бульвар Мира, 56.","Карагандинская область, г. Караганда, ул.Бульвар Мира, 56.",48.67066296687,73.345653992763
450,450,464,464,464,Колледж инновационных технологий КарГТУ,Карагандинская область,True,"г. Темиртау, проспект Республики 30","Карагандинская область, г. Темиртау, проспект Республики 30",50.064552701108,72.982225126113
451,451,465,465,465,Технико-экономический колледж при  Карагандинском государственном индустриальном университете,Карагандинская область,True,"г.Костанай пр. Абая, 35, ","Карагандинская область, г.Костанай пр. Абая, 35, ",53.190304792109,63.610422873688
452,452,467,467,467,КГКП «Костанайский индустриально-педагогический колледж» Управления образования акимата Костанайской области,Костанайская область,True,"г. Костанай,
пр. Н. Назарбаева 156 ","Костанайская область, г. Костанай,
пр. Н. Назарбаева 156 ",53.227510090558,63.636693602259
453,453,468,468,468,КГКП «Костанайский колледж автомобильного транспорта» Управления образования акимата Костанайской области,Костанайская область,True,"г. Костанай,
пр. Абая,23, ","Костанайская область, г. Костанай,
пр. Абая,23, ",53.183735391676,63.603361790815
454,454,469,469,469,КГКП «Костанайский колледж бытсервиса» Управления образования акимата Костанайской области,Костанайская область,True,"г. Костанай, пр. Н. Назарбаева, 68","Костанайская область, г. Костанай, пр. Н. Назарбаева, 68",53.221752100262,63.649029668257
455,455,470,470,470,КГКП «Костанайский колледж сферы обслуживания» Управления образования акимата Костанайской области,Костанайская область,True,"г. Костанай, ул. Быковского, 9,","Костанайская область, г. Костанай, ул. Быковского, 9,",53.182463605507,63.609773192373
456,456,471,471,471,КГКП «Костанайский педагогический колледж» Управления образования акимата Костанайской области,Костанайская область,True,"г. Костанай,
ул.Кобыланды Батыра, 3","Костанайская область, г. Костанай,
ул.Кобыланды Батыра, 3",53.250634218432,63.688931580129
457,457,472,472,472,КГКП «Костанайский политехнический высший колледж» Управления образования акимата Костанайской области,Костанайская область,True,"г.Костанай, ул.Баймагамбетова,1","Костанайская область, г.Костанай, ул.Баймагамбетова,1",53.191863373189,63.608129241398
458,458,473,473,473,КГКП «Костанайский строительный колледж» Управления образования акимата Костанайской области,Костанайская область,True,"г.Аркалык,
пр.Абая, 112, ","Костанайская область, г.Аркалык,
пр.Абая, 112, ",50.254072100042,66.92856436918
459,459,474,474,474,КГКП «Аркалыкский политехнический колледж» Управления образования акимата Костанайской области,Костанайская область,True,"г. Аркалык,
пр. Абая, 23","Костанайская область, г. Аркалык,
пр. Абая, 23",50.253428914702,66.911965015769
460,460,475,475,475,КГКП «Торгайский гуманитарный колледж им.Н.Кулжановой» Управления образования акимата Костанайской области,Костанайская область,True,"г. Лисаковск
6 микрорайон 56 дом.","Костанайская область, г. Лисаковск
6 микрорайон 56 дом.",52.550495389174,62.484515515382
461,461,476,476,476,КГКП «Лисаковский технический колледж» Управления образования акимата Костанайской области,Костанайская область,True,"г.Житикара,
6 микрорайон, дом 54","Костанайская область, г.Житикара,
6 микрорайон, дом 54",52.175393360805,61.187560784632
462,462,477,477,477,КГКП «Житикаринский политехнический колледж» Управления образования акимата Костанайской области,Костанайская область,True,"г.Рудный,
ул.Ленина 151,","Костанайская область, г.Рудный,
ул.Ленина 151,",52.961573592835,63.116249080336
463,463,478,478,478,КГКП «Рудненский горно-технологический колледж» Управления образования акимата Костанайской области,Костанайская область,True,"г. Рудный,
ул.Мира, 117","Костанайская область, г. Рудный,
ул.Мира, 117",52.977927925225,63.104859677023
464,464,479,479,479,КГКП «Рудненский колледж строительства и транспорта» Управления образования акимата Костанайской области,Костанайская область,True,"г. Рудный,
ул. Горького, 60","Костанайская область, г. Рудный,
ул. Горького, 60",52.962608003506,63.13835819398
465,465,480,480,480,КГКП «Рудненский колледж технологии и сервиса» Управления образования акимата Костанайской области,Костанайская область,True,"г.Рудный,
ул. Ленина 34, ","Костанайская область, г.Рудный,
ул. Ленина 34, ",52.964206390532,63.126946316625
466,466,481,481,481,КГКП «Рудненский музыкальный колледж» Управления образования акимата Костанайской области,Костанайская область,True,"г.Рудный,
ул. Ленина 34, ","Костанайская область, г.Рудный,
ул. Ленина 34, ",52.964206390532,63.126946316625
467,467,482,482,482,КГКП «Рудненский политехнический колледж» Управления образования акимата Костанайской области,Костанайская область,True,"г. Рудный,
ул. 50 лет Октября 34,","Костанайская область, г. Рудный,
ул. 50 лет Октября 34,",52.959950311556,63.094810518946
468,468,483,483,483,КГКП «Рудненский социально- гуманитарный колледж им.И.Алтынсарина» Управления образования акимата Костанайской области,Костанайская область,True,"Костанайский район
г. Тобыл,
ул.Терешковой15\4","Костанайская область, Костанайский район
г. Тобыл,
ул.Терешковой15\4",53.20249258224,63.702357515554
469,469,484,484,484,КГКП «Костанайский сельскохозяйственный колледж» Управления образования акимата Костанайской области,Костанайская область,True,"Аулиекольский район
село Аулиеколь
ул. Гагарина 24","Костанайская область, Аулиекольский район
село Аулиеколь
ул. Гагарина 24",52.352396693245,64.120142415222
470,470,485,485,485,КГКП «Аулиекольский сельскохозяйственный колледж»,Костанайская область,True,"Мендыгаринский район
с.Боровское,
ул.Косаева,2,","Костанайская область, Мендыгаринский район
с.Боровское,
ул.Косаева,2,",53.7890661,64.1713512
471,471,486,486,486,КГКП «Профессионально-технический колледж имени Камшат Доненбаевой» Управления образования акимата Костанайской области,Костанайская область,True,"Денисовский район,
с. Денисовка,
ул Целинная, 50","Костанайская область, Денисовский район,
с. Денисовка,
ул Целинная, 50",52.441419000943,61.745757116818
472,472,487,487,487,КГКП «Денисовский профессионально – технический колледж» Управления образования акимата Костанайской области,Костанайская область,True,"Карабалыкский район,
п. Карабалык,
ул. Гоголя 6.","Костанайская область, Карабалыкский район,
п. Карабалык,
ул. Гоголя 6.",53.745677207478,62.045342094286
473,473,488,488,488,КГКП «Казахстанский агротехнический колледж» Управления образования акимата Костанайской области,Костанайская область,True,"Карасуский район,
село Карасу,
ул. Рабочая,1 ","Костанайская область, Карасуский район,
село Карасу,
ул. Рабочая,1 ",52.668199018886,65.484640312141
474,474,489,489,489,КГКП «Карасуский сельскохозяйственный колледж» Управления образования акимата Костанайской области,Костанайская область,True,"Сарыкольский район,
п. Сарыколь,
 ул.Гагарина, . 1","Костанайская область, Сарыкольский район,
п. Сарыколь,
 ул.Гагарина, . 1",53.329249086477,65.524593407998
475,475,490,490,490,КГКП «Сарыкольский колледж агробизнеса и права» Управления образования акимата Костанайской области,Костанайская область,True,"Федоровский р-н,
с. Жарколь
ул. Школьная 6А","Костанайская область, Федоровский р-н,
с. Жарколь
ул. Школьная 6А",53.643710517159,62.71290443964
476,476,491,491,491,КГКП «Федоровский сельскохозяйственный колледж» Управления образования акимата Костанайской области,Костанайская область,True,"г. Аркалык.
пр. Абая, 25.","Костанайская область, г. Аркалык.
пр. Абая, 25.",50.253976881622,66.9120003874
477,477,492,492,492,ГККП «Аркалыкский медицинский колледж» Управление здравоохранения акимата Костанайской области,Костанайская область,True,"г. Костанай,
ул. Баймагамбетова, 181,","Костанайская область, г. Костанай,
ул. Баймагамбетова, 181,",53.213655600889,63.625655976881
478,478,493,493,493,КГП «Костанайский высший медицинский колледж» Управление здравоохранения акимата Костанайской области,Костанайская область,True,"г.Аркалык
ул. С.Мауленова 26","Костанайская область, г.Аркалык
ул. С.Мауленова 26",50.265534326799,66.935796519314
479,479,494,494,494,Учреждение «Аркалыкский многопрофильный колледж Казпотребсоюза»,Костанайская область,True,"г. Костанай, ул.Л.Беды 237/2","Костанайская область, г. Костанай, ул.Л.Беды 237/2",53.2087758,63.6184076
480,480,495,495,495,Учреждение «Колледж «Зерек»,Костанайская область,True,"г.Костанай,
ул.Аль-Фараби 67,","Костанайская область, г.Костанай,
ул.Аль-Фараби 67,",53.212310389249,63.635418128052
481,481,496,496,496,Учреждение «Костанайский гуманитарный колледж»,Костанайская область,True,"ул.Аль-Фараби,  67","Костанайская область, ул.Аль-Фараби,  67",53.212310389249,63.635418128052
482,482,497,497,497,"Учреждение «Костанайский колледж»
г.Костанай,",Костанайская область,True,"Г. Костанай, 
ул. Тауелсиздик, 118Б","Костанайская область, Г. Костанай, 
ул. Тауелсиздик, 118Б",53.220246417085,63.626751575445
483,483,498,498,498,Учреждение «Костанайский социально-технический колледж»,Костанайская область,True,"г.Костанай, ул.Чернышевского 59","Костанайская область, г.Костанай, ул.Чернышевского 59",53.202511902527,63.597729487157
484,484,499,499,499,Учреждение «Колледж предпринимательства КИнЭУ»,Костанайская область,True,"г.Костанай,
ул.Аль-Фараби,99","Костанайская область, г.Костанай,
ул.Аль-Фараби,99",53.217159194507,63.625974740659
485,485,500,500,500,Учреждение «Костанайский высший экономический колледж Казпотребсоюза»,Костанайская область,True,"г. Кызылорда, ул. Коркыт ата № 24","Костанайская область, г. Кызылорда, ул. Коркыт ата № 24",44.839585313964,65.497680877101
486,486,503,503,503,Кызылординский гуманитарный колледж имени М. Маметовой,Кызылординская область,True,г.Кызылорда ул. Жахаева № 66 ,"Кызылординская область, г.Кызылорда ул. Жахаева № 66 ",44.8386622,65.5146179
487,487,504,504,504,Кызылординский аграрно-технический колледж имени И. Абдукаримова,Кызылординская область,True,"г. Кызылорда, ул. Желтоксан № 37","Кызылординская область, г. Кызылорда, ул. Желтоксан № 37",44.831524102405,65.504895013526
488,488,505,505,505,Кызылординский музыкальный колледж имени Казангапа,Кызылординская область,True,г. Кызылорда ул.Жахаева № 78,"Кызылординская область, г. Кызылорда ул.Жахаева № 78",44.8386622,65.5146179
489,489,506,506,506,Кызылординский медицинский колледж,Кызылординская область,True,"г.Аральск, переулок Айтьеке би № 16а","Кызылординская область, г.Аральск, переулок Айтьеке би № 16а",46.809895965995,61.681010306819
490,490,507,507,507,«Аральский многопрофильный колледж»,Кызылординская область,True,"пос. Жалагаш, ул.Абая № 4","Кызылординская область, пос. Жалагаш, ул.Абая № 4",45.0778825,64.6763837
491,491,508,508,508,Жалагашский индустриально-аграрный колледж,Кызылординская область,True,"кент Айтеке би, ул. Михайлюк № 12 ","Кызылординская область, кент Айтеке би, ул. Михайлюк № 12 ",45.855013838379,62.157052920237
492,492,509,509,509,«Казалинский транспортно-технический колледж»,Кызылординская область,True,"г.Кызылорда, пр. Абая № 33","Кызылординская область, г.Кызылорда, пр. Абая № 33",44.8386622,65.5146179
493,493,510,510,510,«Кызылординский колледж строительства и бизнеса»,Кызылординская область,True,"пос.Гагарина, ул. Камалова б/н №","Кызылординская область, пос.Гагарина, ул. Камалова б/н №",45.655591897972,63.303727779213
494,494,511,511,511,«Кызылординский индустриально- технический колледж»,Кызылординская область,True,"г.Казалинск, ул. Джамбула № 24","Кызылординская область, г.Казалинск, ул. Джамбула № 24",45.7652689,62.1039904
495,495,512,512,512,«Казалинский аграрно-технический колледж»,Кызылординская область,True,"г. Кызылорда,пр. Жибек жолы № 2а","Кызылординская область, г. Кызылорда,пр. Жибек жолы № 2а",44.78178689479,65.535489965945
496,496,513,513,513,«Кызылординский политехнический колледж»,Кызылординская область,True,"пос.Теренозек,ул. Муратбаева № 85","Кызылординская область, пос.Теренозек,ул. Муратбаева № 85",45.048724820394,64.976846429043
497,497,514,514,514,«Сырдарьинский аграрно-технический колледж»,Кызылординская область,True,"пос. Шиели,ул Асан ата б/н №","Кызылординская область, пос. Шиели,ул Асан ата б/н №",44.175748688419,66.708700171185
498,498,515,515,515,«Шиелийский индустриально- аграрный колледж»,Кызылординская область,True,пос.Жосалы ул. Муратбаева № 2,"Кызылординская область, пос.Жосалы ул. Муратбаева № 2",45.654058617379,63.314744617471
499,499,516,516,516,«Кармакшинский аграрно-технический колледж»,Кызылординская область,True,пос. Жанакорган ул. Курмангазы № 53,"Кызылординская область, пос. Жанакорган ул. Курмангазы № 53",43.919182482138,67.249950676807
500,500,517,517,517,«Жанакорганский аграрно-технический колледж»,Кызылординская область,True,"г. Аральск,  ул. Аленова № 1","Кызылординская область, г. Аральск,  ул. Аленова № 1",46.800847,61.6459908
501,501,518,518,518,«Аральский индустриально-технический колледж»,Кызылординская область,True,"г. Кызылорда,ул.Казбек би б/н №","Кызылординская область, г. Кызылорда,ул.Казбек би б/н №",44.842611756466,65.491017320788
502,502,520,520,520,Казахский гуманитарно- юридический и технический колледж,Кызылординская область,False,"г.Кызылорда, пер. Мичурина № 1а","Кызылординская область, г.Кызылорда, пер. Мичурина № 1а",44.8386622,65.5146179
503,503,521,521,521,Кызылординский гуманитарно-экономический колледж,Кызылординская область,False,г. Кызылордапр. Абая № 64,"Кызылординская область, г. Кызылордапр. Абая № 64",44.872616625499,65.509559810504
504,504,522,522,522,Ұлағат-Қызылордаколледжі,Кызылординская область,False,г. Кызылордапр. Абая № 31а,"Кызылординская область, г. Кызылордапр. Абая № 31а",47.084191511292,61.157540827558
505,505,523,523,523,Колледж университета «Болашак»,Кызылординская область,False,г. Кызылорда ул. Байтурсынова № 91,"Кызылординская область, г. Кызылорда ул. Байтурсынова № 91",44.836862201261,65.50980052236
506,506,524,524,524,"Медицинский колледж ""Оркениет""",Кызылординская область,False,"гКызылорда, ул. М.Кокенова № 1а","Кызылординская область, гКызылорда, ул. М.Кокенова № 1а",46.801101846892,61.657104664392
507,507,525,525,525,"Колледж "" Жас өркен""",Кызылординская область,False,"г.Кызылорда, ул. Муратбаева № 43","Кызылординская область, г.Кызылорда, ул. Муратбаева № 43",44.829024854092,65.520104498811
508,508,526,526,526,Кызылординский многопрофильный гуманитарно-технический колледж,Кызылординская область,False,"г. Кызылорда, пер. Мичурина № 1А","Кызылординская область, г. Кызылорда, пер. Мичурина № 1А",44.8386622,65.5146179
509,509,527,527,527,Кызылординскийколледж имени Абылайхана,Кызылординская область,False,"гКызылорда,ул. Журба № 27","Кызылординская область, гКызылорда,ул. Журба № 27",44.869768714937,65.506782115207
510,510,528,528,528,"Кызылординский колледж ""Қызмет""",Кызылординская область,False,"г.Байконур,ул.Гагарина № 7","Кызылординская область, г.Байконур,ул.Гагарина № 7",45.655474111277,63.3039228261
511,511,529,529,529,Байконырский колледжКосмос,Кызылординская область,False,Қазалыауданы Айбергенов № 5,"Кызылординская область, Қазалыауданы Айбергенов № 5",45.282659451782,62.237164472791
512,512,530,530,530,Казалинский гуманитарно-индустриальныйколледж,Кызылординская область,False,"Казалинский р-н, кент Айтеке би, ул. Счастнова б/н №","Кызылординская область, Казалинский р-н, кент Айтеке би, ул. Счастнова б/н №",45.8441286,62.1519102
513,513,531,531,531,Казалинский гуманитарно-технический колледж,Кызылординская область,False,"г.Кызылорда, ул. Мустафа шокай № 149","Кызылординская область, г.Кызылорда, ул. Мустафа шокай № 149",44.827626391699,65.532370137764
514,514,532,532,532,Кызылординский многопрофильный колледж,Кызылординская область,False,"г.Кызылорда, пос.Титова б/н №","Кызылординская область, г.Кызылорда, пос.Титова б/н №",44.8386622,65.5146179
515,515,533,533,533,Кызылординский инженерно технический колледж,Кызылординская область,False,"г. Кызылорда, ул Конаева 9,","Кызылординская область, г. Кызылорда, ул Конаева 9,",45.052453228882,64.984257620037
516,516,534,534,534,Болашақ медицина колледжі,Кызылординская область,False,"130000 Мангистауская обл., г. Актау , 2 мкр.","Кызылординская область, 130000 Мангистауская обл., г. Актау , 2 мкр.",44.778764905256,65.521986347238
517,517,536,536,536,Мангистауский высший педагогический  колледж им. М. Жырау Сенгирбекулы,Мангистауская область,True,"130000 Мангистауская обл., г.Актау 3б мкр,  тел. 50-76-16","Мангистауская область, 130000 Мангистауская обл., г.Актау 3б мкр,  тел. 50-76-16",43.640271932535,51.183985287965
518,518,537,537,537,Мангистауский высший политехнический колледж им. Х. Узбекгалиева,Мангистауская область,True,"130000 Мангистауская обл., г. Актау, 3-б мкр. тел. 50-22-00","Мангистауская область, 130000 Мангистауская обл., г. Актау, 3-б мкр. тел. 50-22-00",43.638505161998,51.1887206894
519,519,538,538,538,Манистауский энергетический колледж имени Н.Бекбосынова,Мангистауская область,True,"130000 Мангистауская обл., г. Актау, 5 мкр.","Мангистауская область, 130000 Мангистауская обл., г. Актау, 5 мкр.",43.329964905665,52.861042512982
520,520,539,539,539,Мангистауский колледж искусств,Мангистауская область,True,"Мангистауская обл,, Мангистауский район, с. Шетпе.","Мангистауская область, Мангистауская обл,, Мангистауский район, с. Шетпе.",44.1251221,52.145874
521,521,540,540,540,Мангистауский технический колледж,Мангистауская область,True,"Мангистауская обл., г. Жанаозен, мкр. Шугыла 21 Б ","Мангистауская область, Мангистауская обл., г. Жанаозен, мкр. Шугыла 21 Б ",43.346854692021,52.869727002862
522,522,541,541,541,Мангистауский высший областной медицинский колледж,Мангистауская область,True,"Мангистауская обл  г.Жанаозен, 4 микрорайон","Мангистауская область, Мангистауская обл  г.Жанаозен, 4 микрорайон",43.339695708519,52.860276323212
523,523,542,542,542,Мангистауский индустриально-технический колледж им. О.Турмаганбетулы,Мангистауская область,True,"Мангистауская обл, Бейнеуский район, с. Бейнеу,ул.Майлина,10","Мангистауская область, Мангистауская обл, Бейнеуский район, с. Бейнеу,ул.Майлина,10",45.311896714993,55.194776670632
524,524,543,543,543,Бейнеуский гуманитарно-экономический колледж,Мангистауская область,True,"Мангистауская обл.  г. Актау, 23 мкр.","Мангистауская область, Мангистауская обл.  г. Актау, 23 мкр.",43.331052583331,52.868374666603
525,525,544,544,544,Мангистауский колледж туризма,Мангистауская область,True,"г.Актау, Мангистауская обл","Мангистауская область, г.Актау, Мангистауская обл",43.6662906,51.1356908
526,526,545,545,545,Актауский технологический  колледж сервиса,Мангистауская область,True,г.Жанаозен Мангистауская обл,"Мангистауская область, г.Жанаозен Мангистауская обл",43.340450528588,52.851391152268
527,527,546,546,546,Жанаозенский колледж сервиса и новых технологий,Мангистауская область,True,"с. Бейнеу Бейнеуский район, Мангистауская обл","Мангистауская область, с. Бейнеу Бейнеуский район, Мангистауская обл",45.300293,55.1831055
528,528,547,547,547,Бейнеуский политехнический колледж,Мангистауская область,True,с. Жетыбай Каракиянский район Мангистауская обл,"Мангистауская область, с. Жетыбай Каракиянский район Мангистауская обл",43.5892944,52.0958862
529,529,548,548,548,Каракиянский профессиональный колледж,Мангистауская область,True,"г. Актау, Мангистауская обл, Промзона","Мангистауская область, г. Актау, Мангистауская обл, Промзона",43.344391241327,52.836941559373
530,530,549,549,549,"Специализированный технический колледж
 ",Мангистауская область,True,"с. Баутино, Тупкараганский  район, Мангистауская обл","Мангистауская область, с. Баутино, Тупкараганский  район, Мангистауская обл",44.5402832,50.2498779
531,531,550,550,550,Тупкараганский гуманитарно–профессиональный колледж,Мангистауская область,True,"130000 Мангистауская обл, г.Актау, 11 мкр зд.№3","Мангистауская область, 130000 Мангистауская обл, г.Актау, 11 мкр зд.№3",43.331095498675,52.864138704196
532,532,552,552,552,Колледж Есенова,Мангистауская область,False,"Мангистауская обл г. Актау, 35 мкр.","Мангистауская область, Мангистауская обл г. Актау, 35 мкр.",43.330690694661,52.86827886145
533,533,553,553,553,Медицинский колледж «Меирбике»,Мангистауская область,False,"Мангистауская  обл г. Актау, 13 мкр","Мангистауская область, Мангистауская  обл г. Актау, 13 мкр",43.331253916645,52.86471143964
534,534,554,554,554,Медицинский колледж в городе Актау,Мангистауская область,False,"г.Актау, 3б мкр, д.4","Мангистауская область, г.Актау, 3б мкр, д.4",43.639830287378,51.183183393992
535,535,555,555,555,Колледж «Кайнар»,Мангистауская область,False,"Мангистауская обл, г. Актау, 3 мкр.","Мангистауская область, Мангистауская обл, г. Актау, 3 мкр.",43.329889384718,52.860797174676
536,536,556,556,556,Колледж иностранных языков,Мангистауская область,False,"Мангистуская обл, г. Актау, 27 мкр.","Мангистауская область, Мангистуская обл, г. Актау, 27 мкр.",43.6356,51.2277
537,537,557,557,557,Прикаспийский колледж «Болашак»,Мангистауская область,False,"Мангистауская обл, г. Актау, 17  мкр.","Мангистауская область, Мангистауская обл, г. Актау, 17  мкр.",43.330954389335,52.866627961801
538,538,558,558,558,Инновационный колледж педагогики и сервиса имена Асмет Улас,Мангистауская область,False,"Мангистауская обл, г. Актау, 9 мкр. 24 дом","Мангистауская область, Мангистауская обл, г. Актау, 9 мкр. 24 дом",43.331060881415,52.863555910468
539,539,559,559,559,Актауский транспортный колледж Казахской академии транспорта и коммуникаций им.М.Тынышбаева,Мангистауская область,False,Мангистауская  обл г. Жанаозен мкр. Аксу,"Мангистауская область, Мангистауская  обл г. Жанаозен мкр. Аксу",43.340450528588,52.851391152268
540,540,560,560,560,Жанаозенский политехнический колледж,Мангистауская область,False,"Мангистауская  обл г. Жанаозен, 4 мкр.","Мангистауская область, Мангистауская  обл г. Жанаозен, 4 мкр.",43.340450528588,52.851391152268
541,541,561,561,561,Высший колледж педагогики и отраслевых технологий «Каспий»,Мангистауская область,False,"г.Актау, Мангистауская обл","Мангистауская область, г.Актау, Мангистауская обл",43.6662906,51.1356908
542,542,562,562,562,Мангистауский высший многопрофильный колледж «Келешек»,Мангистауская область,False,"г. Павлодар,
ул. Димитрова, 2 ","Мангистауская область, г. Павлодар,
ул. Димитрова, 2 ",52.294029981035,76.978580018961
543,543,564,564,564,КГКП «Павлодарский колледж транспорта и коммуникаций»,Павлодарская область,True,"г. Павлодар,
ул. Я.Геринга, 78","Павлодарская область, г. Павлодар,
ул. Я.Геринга, 78",52.2416921,77.0341264
544,544,565,565,565,КГКП «Павлодарский технологический колледж»,Павлодарская область,True," г. Павлодар,
ул. Исиналиева, 6/9","Павлодарская область,  г. Павлодар,
ул. Исиналиева, 6/9",52.279013801496,76.937584465806
545,545,566,566,566,КГКП «Павлодарский педагогический колледж им. Б. Ахметова»,Павлодарская область,True,"г. Павлодар, 
ул. Мира 43","Павлодарская область, г. Павлодар, 
ул. Мира 43",52.297932720882,76.950055228989
546,546,567,567,567,КГКП «Павлодарский машиностроительный колледж»,Павлодарская область,True,"Павлодарский район
с. Красноармейка,
ул. 60 лет Октября 26","Павлодарская область, Павлодарский район
с. Красноармейка,
ул. 60 лет Октября 26",52.3441745,77.2595555
547,547,568,568,568,КГКП «Красноармейский аграрно-технический колледж»,Павлодарская область,True,"г. Аксу,
ул. Астана 1","Павлодарская область, г. Аксу,
ул. Астана 1",52.044837592191,76.919293309059
548,548,569,569,569,КГКП «Аксуский колледж имени Жаяу  Мусы»,Павлодарская область,True,"г. Павлодар,
ул. И. Байзакова 151","Павлодарская область, г. Павлодар,
ул. И. Байзакова 151",52.273550016002,76.961410025582
549,549,570,570,570,КГП на ПХВ «Павлодарский медицинский высший колледж»,Павлодарская область,True,"г. Екибастуз , 
ул. Ломоносова 5","Павлодарская область, г. Екибастуз , 
ул. Ломоносова 5",51.742741606078,75.323707934154
550,550,571,571,571,КГКП «Екибастузский медицинский колледж»,Павлодарская область,True,"г. Екибастуз,
ул. М. Жусупа 19","Павлодарская область, г. Екибастуз,
ул. М. Жусупа 19",51.72371,75.32287
551,551,572,572,572,КГКП «Экибастузский политехнический колледж»,Павлодарская область,True,"г. Павлодар,
ул. Торайгырова 67","Павлодарская область, г. Павлодар,
ул. Торайгырова 67",52.295996501248,76.946136437797
552,552,573,573,573,ГУ «Музыкальный колледж – музыкальная школа- интернат для одарённых детей»,Павлодарская область,True,"г. Павлодар,
ул. Лермонтова 93","Павлодарская область, г. Павлодар,
ул. Лермонтова 93",52.290492608347,76.959140206202
553,553,574,574,574,КГКП «Павлодарский бизнес-колледж»,Павлодарская область,True,"г. Павлодар,
ул. Торайгырова 70","Павлодарская область, г. Павлодар,
ул. Торайгырова 70",52.298079990921,76.960360024572
554,554,575,575,575,КГКП «Павлодарский химико-механический колледж»,Павлодарская область,True,"г. Павлодар,
ул. Ломова, 64","Павлодарская область, г. Павлодар,
ул. Ломова, 64",52.265549992335,76.966909978989
555,555,576,576,576,РГП на ПХВ «Павлодарский государственный университет имени            С. Торайгырова»,Павлодарская область,True,"г. Павлодар,
ул. Ломова,180 ","Павлодарская область, г. Павлодар,
ул. Ломова,180 ",52.26710001578,77.002700034996
556,556,577,577,577,КГКП «Павлодарский колледж сферы обслуживания»,Павлодарская область,True,"г. Павлодар
ул.Ломова 164","Павлодарская область, г. Павлодар
ул.Ломова 164",52.266740013038,77.000270037446
557,557,578,578,578,КГКП «Павлодарский колледж строительства и коммунального хозяйства»,Павлодарская область,True,"г. Павлодар,
ул Украинская 38","Павлодарская область, г. Павлодар,
ул Украинская 38",52.297985987877,77.005734032488
558,558,579,579,579,КГКП «Павлодарский колледж технического сервиса»,Павлодарская область,True,"г. Павлодар
ул. Чкалова 134","Павлодарская область, г. Павлодар
ул. Чкалова 134",52.300628174641,77.003308489296
559,559,580,580,580,КГКП «Павлодарский железнодорожный колледж»,Павлодарская область,True,"г. Павлодар
ул. Ломова 162","Павлодарская область, г. Павлодар
ул. Ломова 162",52.265847005074,76.98512896755
560,560,581,581,581,КГКП «Павлодарский колледж цветной металлургии»,Павлодарская область,True,"г. Павлодар,
ул Ломова 188","Павлодарская область, г. Павлодар,
ул Ломова 188",52.267058692997,77.008047773041
561,561,582,582,582,КГКП «Павлодарский монтажный колледж»,Павлодарская область,True,"г.Павлодар,
ул.Мира 9/1 ","Павлодарская область, г.Павлодар,
ул.Мира 9/1 ",52.300556005119,76.934403030637
562,562,583,583,583,КГКП «Павлодарский колледж сервиса и питания»,Павлодарская область,True,"г. Екибастуз
ул. Машхур Жусупа 109 ","Павлодарская область, г. Екибастуз
ул. Машхур Жусупа 109 ",51.697600214615,75.348451783863
563,563,584,584,584,КГКП «Экибастузский строительно-технический колледж»,Павлодарская область,True,"г. Екибастуз
ул. Машхур Жусупа 23 ","Павлодарская область, г. Екибастуз
ул. Машхур Жусупа 23 ",51.697600214615,75.348451783863
564,564,585,585,585,КГКП «Экибастузский колледж горно-технический колледж  им.К.Пшенбаева»,Павлодарская область,True,"г. Аксу,
ул. Ауэзова, 6 ","Павлодарская область, г. Аксу,
ул. Ауэзова, 6 ",52.038013884815,76.918058487083
565,565,586,586,586,КГКП «Аксуский колледж черной металлургии»,Павлодарская область,True,"Теренкольский район с.Теренколь
ул. Гагарина 18","Павлодарская область, Теренкольский район с.Теренколь
ул. Гагарина 18",53.077148680145,76.095996627629
566,566,587,587,587,КГКП «Качирский аграрно-технический колледж»,Павлодарская область,True,"Железинский район
с. Железинка
ул. Квиткова 13","Павлодарская область, Железинский район
с. Железинка
ул. Квиткова 13",53.535297388926,75.318162886108
567,567,588,588,588,КГКП «Железинский аграрно-технчиеский колледж»,Павлодарская область,True,"Иртышский район с.Иртышск
ул. Гагарина 81","Павлодарская область, Иртышский район с.Иртышск
ул. Гагарина 81",53.334105812634,75.454130096107
568,568,589,589,589,КГКП «Иртышский аграрно-технический колледж»,Павлодарская область,True,"Щербактинский район с.Щербакты
ул. Чкалова, 27 ","Павлодарская область, Щербактинский район с.Щербакты
ул. Чкалова, 27 ",52.493168116777,78.166055808852
569,569,590,590,590,КГКП «Щербактинский аграрно-технический колледж»,Павлодарская область,True,"Успенский район с.Успенка
ул. Мира 22     ","Павлодарская область, Успенский район с.Успенка
ул. Мира 22     ",52.919019718151,77.421646582625
570,570,591,591,591,КГКП «Успенский аграрно-технический колледж»,Павлодарская область,True,"Актогайский район
с. Кожамжар,
ул. Целинная 14             ","Павлодарская область, Актогайский район
с. Кожамжар,
ул. Целинная 14             ",52.384285518147,76.858428789702
571,571,592,592,592,КГКП «Актогайский аграрно-технический колледж»,Павлодарская область,True,"Баянаульский район с.Баянаул у
л. Буркутбая 1","Павлодарская область, Баянаульский район с.Баянаул у
л. Буркутбая 1",50.7907436,75.7038173
572,572,593,593,593,КГКП «Баянаульский аграрно-технический колледж»,Павлодарская область,True,"Аккулинский район с.Акку,
ул. Идрисханова 1","Павлодарская область, Аккулинский район с.Акку,
ул. Идрисханова 1",51.5,78.16667
573,573,594,594,594,КГКП «Лебяжинский аграрно-технический колледж»,Павлодарская область,True,"Майский район, с.Коктобе,
ул. Гани Муратбаева  5","Павлодарская область, Майский район, с.Коктобе,
ул. Гани Муратбаева  5",51.523602578848,77.474744133634
574,574,595,595,595,КГКП «Майский аграрно-технический колледж»,Павлодарская область,True,"г. Павлодар,
Северная промышленная зона, ГУ АП-162/3","Павлодарская область, г. Павлодар,
Северная промышленная зона, ГУ АП-162/3",52.2416921,77.0341264
575,575,596,596,596,КГКП «Павлодарский колледж №1»,Павлодарская область,True,"г. Павлодар,
Восточный промышленный район, ГУ АП162/2","Павлодарская область, г. Павлодар,
Восточный промышленный район, ГУ АП162/2",52.2416921,77.0341264
576,576,597,597,597,КГКП «Павлодарский колледж № 2»,Павлодарская область,True,"г. Павлодар,
Северный промышленный район, ГУ АП162/4","Павлодарская область, г. Павлодар,
Северный промышленный район, ГУ АП162/4",52.33999,76.95241
577,577,598,598,598,КГКП «Павлодарский колледж № 3»,Павлодарская область,True,"г. Павлодар,
ул.Ломова 162","Павлодарская область, г. Павлодар,
ул.Ломова 162",52.265847005074,76.98512896755
578,578,599,599,599,ТОО «Павлодарский политехнический высший колледж»,Павлодарская область,True,"г. Павлодар,
ул. Кирова, 115 ","Павлодарская область, г. Павлодар,
ул. Кирова, 115 ",52.284274649547,76.980138410227
579,579,600,600,600,УО «Павлодарский экономический колледж Казпотребсоюза»,Павлодарская область,True,"г.Павлодар, ул. ак. Маргулана 91","Павлодарская область, г.Павлодар, ул. ак. Маргулана 91",52.2416921,77.0341264
580,580,601,601,601,ОУ «Павлодарский художественный колледж»,Павлодарская область,True,"г.Павлодар ул.Ген.Дюсенова,4","Павлодарская область, г.Павлодар ул.Ген.Дюсенова,4",52.2416921,77.0341264
581,581,602,602,602,НОУ «Павлодарский гуманитарно-педагогический колледж»,Павлодарская область,True,г.Павлодар ул.Ген.Дюсенова.4,"Павлодарская область, г.Павлодар ул.Ген.Дюсенова.4",52.2416921,77.0341264
582,582,603,603,603,"НОУ «Павлодарский
гуманитарный колледж»",Павлодарская область,True,г.Павлодар ул.Ген.Дюсенова.4,"Павлодарская область, г.Павлодар ул.Ген.Дюсенова.4",52.2416921,77.0341264
583,583,604,604,604,"Учреждение «Павлодарский
технико-экономический колледж»",Павлодарская область,True,"г.Павлодар,
М. Горького 102/1","Павлодарская область, г.Павлодар,
М. Горького 102/1",52.272109259061,76.960898032269
584,584,605,605,605,Учреждение «Павлодарский нефтегазовый колледж»,Павлодарская область,True,"г.Павлодар
ул. Камзина,37/1","Павлодарская область, г.Павлодар
ул. Камзина,37/1",52.286856999754,76.982750015791
585,585,606,606,606,УОО «Павлодарский инновационный многопрофильного колледжа»,Павлодарская область,True,"г.Павлодар,
ул.Мира, 18/1","Павлодарская область, г.Павлодар,
ул.Мира, 18/1",52.300939980103,76.93757197677
586,586,607,607,607,ЧУОО «Павлодарский колледж управления»,Павлодарская область,True,"г.Павлодар,
ул.Ломова 45","Павлодарская область, г.Павлодар,
ул.Ломова 45",52.263230007264,76.959440026879
587,587,608,608,608,ТОО «Колледж ИнЕУ»,Павлодарская область,True,"г.Павлодар, 
ул.Камзина 90","Павлодарская область, г.Павлодар, 
ул.Камзина 90",52.276889994869,76.98213629284
588,588,609,609,609,Учреждение «Колледж информационных технологий и бизнеса»,Павлодарская область,True,"г.Павлодар, ул.Р.Люксембург, 105","Павлодарская область, г.Павлодар, ул.Р.Люксембург, 105",52.270205609921,76.962889698175
589,589,610,610,610,ЧУОО «Колледж Кайнар»,Павлодарская область,True,"г.Екибастуз,
ул.Мәшһүр Жүсіп 23","Павлодарская область, г.Екибастуз,
ул.Мәшһүр Жүсіп 23",51.741209980911,75.322679977549
590,590,611,611,611,ТОО «Екибастузский колледж ИнЕУ»,Павлодарская область,True,"г.Екибастуз,
ул. Ауэзова, 14А ","Павлодарская область, г.Екибастуз,
ул. Ауэзова, 14А ",52.043651239223,76.929632060621
591,591,612,612,612,НУО «Екибастузский колледж инженерно-технического института имени академика Сатпаева»,Павлодарская область,True,"г.Екибастуз,  ул.Строительная,  30 В","Павлодарская область, г.Екибастуз,  ул.Строительная,  30 В",51.732463800224,75.330422173874
592,592,613,613,613,Учреждение «Екибастузский гуманитарно- технический колледж»,Павлодарская область,True,"150013
г. Петропавловск,
ул. Студенческая, 1","Павлодарская область, 150013
г. Петропавловск,
ул. Студенческая, 1",53.959723,76.5707392
593,593,615,615,615,КГУ «Машиностроительный колледж города Петропавловска»,Северо-Казахстанская область,True,"150305
Аккайынский р-н,
с. Киялы","Северо-Казахстанская область, 150305
Аккайынский р-н,
с. Киялы",54.1995406,69.6502845
594,594,616,616,616,"КГУ
«Аграрный колледж
Аккайынского района»",Северо-Казахстанская область,True,"150011
г. Петропавловск
ул. Кеншинбаева, 11","Северо-Казахстанская область, 150011
г. Петропавловск
ул. Кеншинбаева, 11",54.8855854,69.1500253
595,595,617,617,617,"КГУ
«Колледж сферы обслуживания города Петропавловска им. Искандера Даутова»",Северо-Казахстанская область,True,"150214
Акжарский район
с.Ленинградское","Северо-Казахстанская область, 150214
Акжарский район
с.Ленинградское",53.5360969,71.5458447
596,596,618,618,618,"КГУ
«Ленинградский сельскохозяйственный колледж Акжарского района»",Северо-Казахстанская область,True,"150115
Айыртауский р-н
с. Саумалколь","Северо-Казахстанская область, 150115
Айыртауский р-н
с. Саумалколь",53.2927,68.105
597,597,619,619,619,"КГУ
«Агротехнический колледж
с. Саумалколь Айыртауского района»",Северо-Казахстанская область,True,"150597
Есильский р-н,
 с. Петровка
Ул. Жаркова,86","Северо-Казахстанская область, 150597
Есильский р-н,
 с. Петровка
Ул. Жаркова,86",54.3009681,68.225396
598,598,620,620,620,"КГУ
«Петровский аграрно-технический колледж»",Северо-Казахстанская область,True,"150400
р-н Г. Мусрепова
с. Новоишимка
ул. Аблайхана,2","Северо-Казахстанская область, 150400
р-н Г. Мусрепова
с. Новоишимка
ул. Аблайхана,2",53.20364530081,66.807093253365
599,599,621,621,621,"КГУ
 «Новоишимский аграрно-технический колледж»",Северо-Казахстанская область,True,"150702
Кызылжарский р-н,
 с. Боголюбово","Северо-Казахстанская область, 150702
Кызылжарский р-н,
 с. Боголюбово",54.6275384,68.7175647
600,600,622,622,622,"КГУ
«Кызылжарский аграрно-технический колледж»",Северо-Казахстанская область,True,"151000
Тимирязевский р-н
с. Тимирязево,
ул. Комсомольская, 19","Северо-Казахстанская область, 151000
Тимирязевский р-н
с. Тимирязево,
ул. Комсомольская, 19",53.748398392344,66.485661504085
601,601,623,623,623,"КГУ
 «Тимирязевский агротехнический колледж»",Северо-Казахстанская область,True," 151000
Тайыншинский
р-н  с. Тайынша,
ул. Конституции Казахстана,261","Северо-Казахстанская область,  151000
Тайыншинский
р-н  с. Тайынша,
ул. Конституции Казахстана,261",53.865869382334,69.803139991035
602,602,624,624,624,"КГУ
«Тайыншинский колледж агробизнеса»",Северо-Казахстанская область,True,"151200
Уалихановский р-н,
с.  Кишкенеколь,
Ул. Жамбыла, 140","Северо-Казахстанская область, 151200
Уалихановский р-н,
с.  Кишкенеколь,
Ул. Жамбыла, 140",53.624004998069,72.338988069603
603,603,625,625,625,"КГУ
«Уалихановский сельскохозяйственный колледж»",Северо-Казахстанская область,True," 150012
г. Петропавловск  
(при учреждении
ЕС- 164/6)","Северо-Казахстанская область,  150012
г. Петропавловск  
(при учреждении
ЕС- 164/6)",54.8855854,69.1500253
604,604,626,626,626,"КГУ
«Петропавловский профессиональный колледж»",Северо-Казахстанская область,True,"150022
р-н Магжана Жумабаева
г. Булаево
ул. Строительная, 36Б","Северо-Казахстанская область, 150022
р-н Магжана Жумабаева
г. Булаево
ул. Строительная, 36Б",54.912594795256,70.430806493811
605,605,627,627,627,"КГУ
«Колледж профессиональной подготовки и сервиса»",Северо-Казахстанская область,True,"150000
г. Петропавловск
ул. Абая, 28","Северо-Казахстанская область, 150000
г. Петропавловск
ул. Абая, 28",54.877300017922,69.135310011513
606,606,628,628,628,"КГКП
«Высший  колледж
им. Магжана
Жумабаева»",Северо-Казахстанская область,True,"150013
г. Петропавловск
 ул. Студенческая, 1","Северо-Казахстанская область, 150013
г. Петропавловск
 ул. Студенческая, 1",53.630247420459,71.856896286764
607,607,629,629,629,"КГКП
«Северо-Казахстанский профессионально-педагогический колледж»",Северо-Казахстанская область,True," 150009 г. Петропавловск 
ул. Мира, 262","Северо-Казахстанская область,  150009 г. Петропавловск 
ул. Мира, 262",54.8855854,69.1500253
608,608,630,630,630,"КГКП
«Петропавловский
строительно-экономический колледж»",Северо-Казахстанская область,True," 150001
г. Петропавловск
 ул. Медведева, 1","Северо-Казахстанская область,  150001
г. Петропавловск
 ул. Медведева, 1",54.8855854,69.1500253
609,609,631,631,631,"КГКП
«Петропавловский колледж железнодорожного транспорта имени Б.Ашимова»  КГУ»Управление образования акимата Северо-Казахстанской области»",Северо-Казахстанская область,True," 150513 СКО, Есильский район ,
 с. Покровка,
ул. Строительная 49а","Северо-Казахстанская область,  150513 СКО, Есильский район ,
 с. Покровка,
ул. Строительная 49а",53.882483311137,67.421563359126
610,610,632,632,632,КГКП «Высший сельскохозяйственный колледж имени Жалела Кизатова»,Северо-Казахстанская область,True," 150010
г. Петропавловск
 ул. Интернациональная, 81","Северо-Казахстанская область,  150010
г. Петропавловск
 ул. Интернациональная, 81",54.860070010116,69.154250011386
611,611,633,633,633,"КГУ
«Комплекс «Колледж искусств- специализированная школа-интернат для одар`нных детей музыкально-эстетического профиля»",Северо-Казахстанская область,True,"150013
г. Петропавловск
  ул. Шухова, 42","Северо-Казахстанская область, 150013
г. Петропавловск
  ул. Шухова, 42",54.902291336674,69.149306481715
612,612,634,634,634,"КГП на ПВХ
«Северо- Казахстанский высший
 медицинский колледж»",Северо-Казахстанская область,True,"150000
г. Петропавловск,
ул.Театральная, 42","Северо-Казахстанская область, 150000
г. Петропавловск,
ул.Театральная, 42",54.874209987407,69.121020040066
613,613,635,635,635,Негосударстенное учреждение образования «Гуманитарно-технический колледж»,Северо-Казахстанская область,True,"150010
г. Петропавловск  
ул. Бостандыкская, 51","Северо-Казахстанская область, 150010
г. Петропавловск  
ул. Бостандыкская, 51",54.866260003702,69.147919998107
614,614,636,636,636,Негосударственное учреждение образования «Колледж Северо-Казахстанского университета»,Северо-Казахстанская область,True," 150010
г.Петропавловск
 ул.Токсан Би, 94","Северо-Казахстанская область,  150010
г.Петропавловск
 ул.Токсан Би, 94",54.869909987259,69.155230023505
615,615,637,637,637,"Частное учреждение ""Северо-Казахстанский колледж профессиональной подготовки и сервиса»",Северо-Казахстанская область,True," 150010
г.Петропавловск
 ул.Я.Гашека 4","Северо-Казахстанская область,  150010
г.Петропавловск
 ул.Я.Гашека 4",54.8855854,69.1500253
616,616,638,638,638,"КГУ ""Северо-Казахстанская областная специализированная школа-интернат-колледж олимпийского резерва""",Северо-Казахстанская область,True,"150702
Кызылжарский р-н,
 с. Бесколь","Северо-Казахстанская область, 150702
Кызылжарский р-н,
 с. Бесколь",54.7728115,69.101633
617,617,639,639,639,ТОО «Колледж инновационного профессионального развития»,Северо-Казахстанская область,True,Наименование колледжа,"Северо-Казахстанская область, Наименование колледжа",53.855303488025,69.267794559948
618,618,640,640,640, ,Восточно-Казахстанская область,True,"г. Усть-Каменогорск,
ул. Серикбаева, 5","Восточно-Казахстанская область, г. Усть-Каменогорск,
ул. Серикбаева, 5",49.960396992956,82.597084968629
619,619,641,641,641,КГКП «Усть-Каменогорский политехнический колледж»,Восточно-Казахстанская область,True,"г. Усть-Каменогорск, ул. 30-й Гвардейской дивизии, 44","Восточно-Казахстанская область, г. Усть-Каменогорск, ул. 30-й Гвардейской дивизии, 44",49.9609419843,82.586555035127
620,620,642,642,642,КГКП «Усть-Каменогорский медицинский колледж»,Восточно-Казахстанская область,True,"г. Усть-Каменогорск, ул. 30-й Гвардейской дивизии, 6","Восточно-Казахстанская область, г. Усть-Каменогорск, ул. 30-й Гвардейской дивизии, 6",49.96376580557,82.605053811616
621,621,643,643,643,КГКП «Восточно-Казахстанское училище искусств имени народных артистов братьев Абдуллиных»,Восточно-Казахстанская область,True,"г. Усть-Каменогорск, ул. Амурская, 1","Восточно-Казахстанская область, г. Усть-Каменогорск, ул. Амурская, 1",49.961680010875,82.594217016638
622,622,644,644,644,КГКП «Восточно-Казахстанский гуманитарный колледж»,Восточно-Казахстанская область,True,"г. Усть-Каменогорск, ул. Лермонтова, 50","Восточно-Казахстанская область, г. Усть-Каменогорск, ул. Лермонтова, 50",49.969552587704,82.620354640586
623,623,646,646,646,КГУ «Усть-Каменогоский многопрофильный технологический колледж»,Восточно-Казахстанская область,True,"г. Усть-Каменогорск, ул. Ворошилова, 79","Восточно-Казахстанская область, г. Усть-Каменогорск, ул. Ворошилова, 79",49.966571982934,82.614925011347
624,624,647,647,647,КГУ «Усть-Каменогорский колледж строительства»,Восточно-Казахстанская область,True,"г. Усть-Каменогорск, пр.Абая, 10/1","Восточно-Казахстанская область, г. Усть-Каменогорск, пр.Абая, 10/1",49.968749014646,82.615604029324
625,625,648,648,648,КГУ «Усть-Каменогорский колледж сферы обслуживания»,Восточно-Казахстанская область,True,г.УстьКаменогорск,"Восточно-Казахстанская область, г.УстьКаменогорск",49.9546269,82.6262926
626,626,649,649,649,КГУ «Восточно Казахстанская областная специализированная школа интернат колледж олимпийского резерва для одаренных детей в спорте» Управления физической культуры и спорта ВКО,Восточно-Казахстанская область,True,"г. Усть-Каменогорск, ул. Серикбаева, 7","Восточно-Казахстанская область, г. Усть-Каменогорск, ул. Серикбаева, 7",49.960252991859,82.595928014534
627,627,651,651,651,НУ «Восточный техническо-гуманитарный колледж»,Восточно-Казахстанская область,False,"г. Усть-Каменогорск, пр. Независимости 83/2","Восточно-Казахстанская область, г. Усть-Каменогорск, пр. Независимости 83/2",49.982500993639,82.573915963328
628,628,652,652,652,НУ «Колледж транспорта и безопасности жизнедеятельности»,Восточно-Казахстанская область,False,"г. Усть-Каменогорск, ул. Ворошилова, 160","Восточно-Казахстанская область, г. Усть-Каменогорск, ул. Ворошилова, 160",49.972261306413,82.596573904104
629,629,653,653,653,ТОО «Усть-Каменогорский колледж экономики и финансов»,Восточно-Казахстанская область,False,"г. Усть-Каменогорск, ул. Бажова 34","Восточно-Казахстанская область, г. Усть-Каменогорск, ул. Бажова 34",49.974648994382,82.607503003724
630,630,654,654,654,ТОО «Восточно-Казахстанский технико-экономический колледж»,Восточно-Казахстанская область,False,"г. Усть-Каменогорск, ул. Добролюбова, 42","Восточно-Казахстанская область, г. Усть-Каменогорск, ул. Добролюбова, 42",49.975902885187,82.582217819329
631,631,655,655,655,НУ «Казахстанско-Корейский колледж «Квансон»,Восточно-Казахстанская область,False,"г. Усть-Каменогорск, Н.Красных Орлов, 87","Восточно-Казахстанская область, г. Усть-Каменогорск, Н.Красных Орлов, 87",49.9890747,82.5706787
632,632,656,656,656,НУ «Колледж имени Кумаша Нургалиева»,Восточно-Казахстанская область,False,"г. Усть-Каменогорск, ул. Бажова, 68","Восточно-Казахстанская область, г. Усть-Каменогорск, ул. Бажова, 68",49.979311008928,82.600911977981
633,633,657,657,657,ТОО «Колледж «Казахстанский Американский свободный университет»,Восточно-Казахстанская область,False,"г. Усть-Каменогорск, пр. Независимости, 83/2","Восточно-Казахстанская область, г. Усть-Каменогорск, пр. Независимости, 83/2",49.982500993639,82.573915963328
634,634,658,658,658,НУ «Усть-Каменогорский колледж профессиональной подготовки и сервиса»,Восточно-Казахстанская область,False,"г. УстьКаменогорск, т.: 8(7232) 54-11-43,8 707 -775-31-43, пр. Абая, 16/1 (30 Гвардейской Дивизии, 22)","Восточно-Казахстанская область, г. УстьКаменогорск, т.: 8(7232) 54-11-43,8 707 -775-31-43, пр. Абая, 16/1 (30 Гвардейской Дивизии, 22)",54.07115,70.37848
635,635,659,659,659,НУ «Техническо-экономический колледж»,Восточно-Казахстанская область,False,"г. Усть-Каменогорск, пр. Незавсимости, 101","Восточно-Казахстанская область, г. Усть-Каменогорск, пр. Незавсимости, 101",49.981975993133,82.577286997147
636,636,660,660,660,НУ «Усть-Каменогорский стоматологический колледж»,Восточно-Казахстанская область,False,"г. Усть-Каменогорск, ул. Астана, 48","Восточно-Казахстанская область, г. Усть-Каменогорск, ул. Астана, 48",49.953500907846,82.590259417235
637,637,661,661,661,НУ «Восточно-Казахстанский колледж менеджмента и технологий»,Восточно-Казахстанская область,False,"г. Усть-Каменогорск, ул. Бажова, 14","Восточно-Казахстанская область, г. Усть-Каменогорск, ул. Бажова, 14",49.973754519584,82.60660127858
638,638,662,662,662,НУ «Усть-Каменогорский многопрофильный колледж»,Восточно-Казахстанская область,False,"г.Риддер, ул. Островского, 65","Восточно-Казахстанская область, г.Риддер, ул. Островского, 65",50.328144696694,83.453835669651
639,639,665,665,665,КГКП «Риддерский колледж»,Восточно-Казахстанская область,True,"с. Саратовка, ул. Молодёжная, 4","Восточно-Казахстанская область, с. Саратовка, ул. Молодёжная, 4",49.716149214523,84.261553326743
640,640,666,666,666,КГКП «Восточно-Казахстанский сельскохозяйственный колледж»,Восточно-Казахстанская область,True,г.Риддер,"Восточно-Казахстанская область, г.Риддер",50.3501,83.5156
641,641,667,667,667,«Республиканский специализированный колледж олимпийского резерва» в городе Риддере,Восточно-Казахстанская область,True,"г. Шемонаиха, ул. Жукова, 2","Восточно-Казахстанская область, г. Шемонаиха, ул. Жукова, 2",50.627068383911,81.93668487572
642,642,669,669,669,Учреждение «Гуманитарно-технический колледж»,Восточно-Казахстанская область,False,"г. Зыряновск, ул. Курчатова, 10","Восточно-Казахстанская область, г. Зыряновск, ул. Курчатова, 10",49.708721381476,84.247780015808
643,643,670,670,670,Учреждение «Алтайский высший колледж»,Восточно-Казахстанская область,False,"г.Зыряновск, ул. Пролетарская, 82","Восточно-Казахстанская область, г.Зыряновск, ул. Пролетарская, 82",49.724461964178,84.279791549129
644,644,671,671,671,Учреждение «Аграрно-технический колледж»,Восточно-Казахстанская область,False,"г.Зыряновск, ул. Пролетарская, 82","Восточно-Казахстанская область, г.Зыряновск, ул. Пролетарская, 82",49.724461964178,84.279791549129
645,645,672,672,672,Учреждение «Медицинский колледж «Гиппократ»,Восточно-Казахстанская область,False,"Глубоковский район, п.Верхнеберезовка, ул.Амбулаторная 11а","Восточно-Казахстанская область, Глубоковский район, п.Верхнеберезовка, ул.Амбулаторная 11а",50.2775269,82.2158813
646,646,674,674,674,КГУ «Глубоковский технический колледж»,Восточно-Казахстанская область,True,"с. Белоусовка Глубоковского района, ул. Панфилова 2","Восточно-Казахстанская область, с. Белоусовка Глубоковского района, ул. Панфилова 2",50.1280206815,82.548152926633
647,647,675,675,675,КГУ «Глубоковский аграрный колледж»,Восточно-Казахстанская область,True,"г. Шемонаиха, ул. Советская, 155","Восточно-Казахстанская область, г. Шемонаиха, ул. Советская, 155",50.118863556882,82.551324414482
648,648,676,676,676,КГУ «Шемонаихинский колледж»,Восточно-Казахстанская область,True,"Алтайский район, г.Серебрянск, ул.Серебрянская 158","Восточно-Казахстанская область, Алтайский район, г.Серебрянск, ул.Серебрянская 158",49.682408911028,83.269381329077
649,649,677,677,677,КГУ «Серебрянский технологический колледж»,Восточно-Казахстанская область,True,"г. Алтай, ул. Курчатова, 10","Восточно-Казахстанская область, г. Алтай, ул. Курчатова, 10",49.708940741847,84.249328983861
650,650,678,678,678,КГУ «Технологический колледж г.Алтай»,Восточно-Казахстанская область,True,"Алтайский район, с.Чапаево","Восточно-Казахстанская область, Алтайский район, с.Чапаево",49.83333,84.5
651,651,679,679,679,КГУ «Сельскохозяйственный колледж района Алтай»,Восточно-Казахстанская область,True,"г. Зайсан, ул.Жангельдина, 106","Восточно-Казахстанская область, г. Зайсан, ул.Жангельдина, 106",47.477492702882,84.892100768579
652,652,680,680,680,КГУ «Зайсанский технологический колледж»,Восточно-Казахстанская область,True,"Курчумский район, с.Теректы, ул. Журба, 42","Восточно-Казахстанская область, Курчумский район, с.Теректы, ул. Журба, 42",48.569767850266,83.603012685029
653,653,681,681,681,КГУ «Школа-интернат-колледж села Маркаколь»,Восточно-Казахстанская область,True,"Кокпектинский район, с. Самарское, ул. Горохова, 70","Восточно-Казахстанская область, Кокпектинский район, с. Самарское, ул. Горохова, 70",49.021336002751,83.357385025992
654,654,682,682,682,КГУ «Самарский аграрно-технический колледж»,Восточно-Казахстанская область,True,"Катон-Карагайский район, с.Болшенарым, ул. Кирзаводская, 11","Восточно-Казахстанская область, Катон-Карагайский район, с.Болшенарым, ул. Кирзаводская, 11",49.288216146385,85.643046525877
655,655,683,683,683,КГУ «Катон-Карагайский аграрно-технический колледж»,Восточно-Казахстанская область,True,"г. Усть-Каменогорск, ул. 30-ой Гвардейской дивизии, 36","Восточно-Казахстанская область, г. Усть-Каменогорск, ул. 30-ой Гвардейской дивизии, 36",49.991169203793,82.654181776167
656,656,685,685,685,Высший колледж ВКГУ имени С.Аманжолова,Восточно-Казахстанская область,True,"г. Усть-Каменогорск, ул. Протазанова, 69, ул. Серикбаева, 19","Восточно-Казахстанская область, г. Усть-Каменогорск, ул. Протазанова, 69, ул. Серикбаева, 19",49.956665998305,82.586829039541
657,657,686,686,686,Высший технический колледж ВКГТУ им.Д.Серикбаева,Восточно-Казахстанская область,True,Шемонаихинский район с.Половинка,"Восточно-Казахстанская область, Шемонаихинский район с.Половинка",50.5747175,81.8632564
658,658,688,688,688,КГУ «Шемонаихинский колледж №1»,Восточно-Казахстанская область,True,"Глубоковский район, с.Бобровка, Бобровский с/о, учетный квартал 086, здание 23А.","Восточно-Казахстанская область, Глубоковский район, с.Бобровка, Бобровский с/о, учетный квартал 086, здание 23А.",50.1628329,82.7206441
659,659,689,689,689,КГУ «УстьКаменогорский колледж № 1»,Восточно-Казахстанская область,True,Наименование колледжа,"Восточно-Казахстанская область, Наименование колледжа",49.033583576439,84.158784079329
660,660,691,691,691,Государственное коммунальное казенное предприятие  «Колледж №1» управления развития человеческого потенциала Туркестанской области»,Туркестанская область,True,Сузакский,"Туркестанская область, Сузакский",44.86048378127,68.571810632927
661,661,692,692,692,Государственное коммунальное казенное предприятие  «Туркестанский индустриально-строительный колледж» управления развития человеческого потенциала Туркестанской области»,Туркестанская область,True,Шымкент,"Туркестанская область, Шымкент",43.50241344818,68.486084504279
662,662,693,693,693,Государственное коммунальное казенное предприятие  «Колледж №7» управления развития человеческого потенциала Туркестанской области»,Туркестанская область,True,Кентау,"Туркестанская область, Кентау",43.5137715,68.5103285
663,663,694,694,694,Государственное коммунальное казенное предприятие  «Колледж №8» управления развития человеческого потенциала Туркестанской области»,Туркестанская область,True,Толебийский,"Туркестанская область, Толебийский",42.139460842838,70.208020210264
664,664,695,695,695,Государственное коммунальное казенное предприятие  «Туркестанский многопрофильно-технический колледж» управления развития человеческого потенциала Туркестанской области»,Туркестанская область,True,Толебийский,"Туркестанская область, Толебийский",42.139460842838,70.208020210264
665,665,696,696,696,Государственное коммунальное казенное предприятие  «Колледж №11» управления развития человеческого потенциала Туркестанской области»,Туркестанская область,True,Казыгуртский,"Туркестанская область, Казыгуртский",41.893,69.452
666,666,697,697,697,Государственное коммунальное казенное предприятие  «Колледж №12» управления развития человеческого потенциала Туркестанской области»,Туркестанская область,True,Сарыагашский,"Туркестанская область, Сарыагашский",41.4976,69.3441
667,667,698,698,698,Государственное коммунальное казенное предприятие  «Колледж №13» управления развития человеческого потенциала Туркестанской области»,Туркестанская область,True,Келесский,"Туркестанская область, Келесский",41.366875509945,68.512849377829
668,668,699,699,699,Государственное коммунальное казенное предприятие  «Колледж №14» управления развития человеческого потенциала Туркестанской области»,Туркестанская область,True,Махтаральский,"Туркестанская область, Махтаральский",40.734086591634,68.479025137559
669,669,700,700,700,Государственное коммунальное казенное предприятие  «Колледж №15» управления развития человеческого потенциала Туркестанской области»,Туркестанская область,True,Жетысайский,"Туркестанская область, Жетысайский",40.896794185964,68.255856272696
670,670,701,701,701,Государственное коммунальное казенное предприятие  «Колледж №16» управления развития человеческого потенциала Туркестанской области»,Туркестанская область,True,Шардара,"Туркестанская область, Шардара",41.2569993,67.9712788
671,671,702,702,702,Государственное коммунальное казенное предприятие  «Колледж №17» управления развития человеческого потенциала Туркестанской области»,Туркестанская область,True,Арысь,"Туркестанская область, Арысь",42.4302991,68.8083365
672,672,703,703,703,Государственное коммунальное казенное предприятие  «Колледж №18» управления развития человеческого потенциала Туркестанской области»,Туркестанская область,True,Ордабасинский,"Туркестанская область, Ордабасинский",42.567415382275,69.127399952777
673,673,704,704,704,Государственное коммунальное казенное предприятие  «Колледж №19» управления развития человеческого потенциала Туркестанской области»,Туркестанская область,True,Байдибекский,"Туркестанская область, Байдибекский",43.0,69.5
674,674,705,705,705,Государственное коммунальное казенное предприятие  «Колледж №20 имени Д.Курманбека» управления развития человеческого потенциала Туркестанской области»,Туркестанская область,True,Отырарский,"Туркестанская область, Отырарский",42.54584004227,67.434864729743
675,675,706,706,706,Государственное коммунальное казенное предприятие  «Многопрофильный индустриально-технический колледж» управления развития человеческого потенциала Туркестанской области»,Туркестанская область,True,Туркестан,"Туркестанская область, Туркестан",43.2988159,68.2650852
676,676,707,707,707,Государственное коммунальное казенное предприятие  «Многопрофильный колледж профессионального обучения» управления развития человеческого потенциала Туркестанской области»,Туркестанская область,True,Кентау,"Туркестанская область, Кентау",43.5137715,68.5103285
677,677,708,708,708,Государственное коммунальное казенное предприятие  «Аграрно-технический колледж имени Д.Конаева» управления развития человеческого потенциала Туркестанской области»,Туркестанская область,True,Сайрамский,"Туркестанская область, Сайрамский",42.13829,70.48064
678,678,709,709,709,Коммунальное государственное учреждение «Медико-социальное учреждение» «Специальный колледж» управления координации занятости и социальных программ Туркестанской области»,Туркестанская область,True,Кентау,"Туркестанская область, Кентау",43.5137715,68.5103285
679,679,710,710,710,Государственное  коммунальное казенное предприятие «Жетысайский гуманитарный колледж имени Г.Муратбаева» управления развития человеческого потенциала Туркестанской области»,Туркестанская область,True,Жетысайский,"Туркестанская область, Жетысайский",40.896794185964,68.255856272696
680,680,711,711,711,Государственное  коммунальное казенное предприятие  «Махтаральский аграрный колледж» управления развития человеческого потенциала Туркестанской области»,Туркестанская область,True,Махтаральский,"Туркестанская область, Махтаральский",40.734086591634,68.479025137559
681,681,712,712,712,Государственное коммунальное казенное предприятие «Тюлькубасский колледж агробизнеса и туризма» управления развития человеческого потенциала Туркестанской области»,Туркестанская область,True,Тюлькубасский,"Туркестанская область, Тюлькубасский",42.537147308153,70.253241641404
682,682,713,713,713,Государственное коммунальное казенное предприятие «Кентауский многопрофильный колледж» управления развития человеческого потенциала Туркестанской области»,Туркестанская область,True,Кентау,"Туркестанская область, Кентау",43.5137715,68.5103285
683,683,714,714,714,"Государственное  коммунальное казенное предприятие «Туркестанский высший многопрофильный, ремесленный колледж» управления развития человеческого потенциала Туркестанской области»",Туркестанская область,True,Туркестан,"Туркестанская область, Туркестан",43.2988159,68.2650852
684,684,715,715,715,"Государственное  коммунальное казенное предприятие «Туркестанский высший многопрофильный, аграрный колледж» управления развития человеческого потенциала Туркестанской области»",Туркестанская область,True,Шымкент,"Туркестанская область, Шымкент",43.50241344818,68.486084504279
685,685,716,716,716,Государственное коммунальное казенное предприятие «Высший Капланбекский аграрно-технический колледж» управления развития человеческого потенциала Туркестанской области»,Туркестанская область,True,Сарыагашский,"Туркестанская область, Сарыагашский",41.4976,69.3441
686,686,717,717,717,Государственное коммунальное предприятие на праве хозяйственного ведения «Туркестанский высший медицинский колледж» управления общественного здоровья Туркестанской области»,Туркестанская область,True,Туркестан,"Туркестанская область, Туркестан",43.2988159,68.2650852
687,687,718,718,718,Государственное коммунальное предприятие на праве хозяйственного ведения «Жетысайский высший медицинский колледж» управления общественного злоровья Туркестанской области»,Туркестанская область,True,Жетысайский,"Туркестанская область, Жетысайский",40.896794185964,68.255856272696
